{
"type": "FeatureCollection",
"name": "Bars_wgs84",
"crs": { "type": "name", "properties": { "name": "urn:ogc:def:crs:OGC:1.3:CRS84" } },
"features": [
{ "type": "Feature", "properties": { "osm_id": 512041294, "name": "Alley Bar", "amenity": "bar", "cuisine": "", "addr_street": "", "addr_housenumber": "", "addr_postcode": "", "opening_hours": "", "phone": "", "website": "" }, "geometry": { "type": "Point", "coordinates": [ 103.8391309, 1.3014202 ] } },
{ "type": "Feature", "properties": { "osm_id": 512041715, "name": "No.5 Emerald Hill", "amenity": "bar", "cuisine": "", "addr_street": "", "addr_housenumber": "", "addr_postcode": "", "opening_hours": "12:00-02:00", "phone": "+6567320818", "website": "https://emerald-hill.com/" }, "geometry": { "type": "Point", "coordinates": [ 103.8390876, 1.3017791 ] } },
{ "type": "Feature", "properties": { "osm_id": 512073509, "name": "New Asia Bar (71st Floor)", "amenity": "bar", "cuisine": "", "addr_street": "", "addr_housenumber": "", "addr_postcode": "", "opening_hours": "", "phone": "", "website": "" }, "geometry": { "type": "Point", "coordinates": [ 103.8534246, 1.2931895 ] } },
{ "type": "Feature", "properties": { "osm_id": 512086901, "name": "", "amenity": "bar", "cuisine": "", "addr_street": "", "addr_housenumber": "", "addr_postcode": "", "opening_hours": "", "phone": "", "website": "" }, "geometry": { "type": "Point", "coordinates": [ 103.8501121, 1.3001364 ] } },
{ "type": "Feature", "properties": { "osm_id": 512090623, "name": "Tanjong Beach Club", "amenity": "bar", "cuisine": "", "addr_street": "", "addr_housenumber": "", "addr_postcode": "", "opening_hours": "", "phone": "+65 9750 5323", "website": "https://www.tanjongbeachclub.com/" }, "geometry": { "type": "Point", "coordinates": [ 103.8280275, 1.2433821 ] } },
{ "type": "Feature", "properties": { "osm_id": 518295856, "name": "KPO", "amenity": "bar", "cuisine": "", "addr_street": "", "addr_housenumber": "", "addr_postcode": "", "opening_hours": "", "phone": "", "website": "" }, "geometry": { "type": "Point", "coordinates": [ 103.8407044, 1.3001777 ] } },
{ "type": "Feature", "properties": { "osm_id": 965873727, "name": "eM By The Marina", "amenity": "bar", "cuisine": "burger;sandwich;fish_and_chips", "addr_street": "Cove Avenue Circus", "addr_housenumber": "1", "addr_postcode": "098537", "opening_hours": "", "phone": "+65 6271 2802", "website": "https://www.facebook.com/eMBTMSG/" }, "geometry": { "type": "Point", "coordinates": [ 103.83988, 1.2472686 ] } },
{ "type": "Feature", "properties": { "osm_id": 1107747704, "name": "", "amenity": "bar", "cuisine": "", "addr_street": "", "addr_housenumber": "", "addr_postcode": "", "opening_hours": "", "phone": "", "website": "" }, "geometry": { "type": "Point", "coordinates": [ 103.942732, 1.3322971 ] } },
{ "type": "Feature", "properties": { "osm_id": 1316096016, "name": "", "amenity": "bar", "cuisine": "", "addr_street": "", "addr_housenumber": "", "addr_postcode": "", "opening_hours": "", "phone": "", "website": "" }, "geometry": { "type": "Point", "coordinates": [ 103.8135892, 1.2544114 ] } },
{ "type": "Feature", "properties": { "osm_id": 1318610013, "name": "Boulevard", "amenity": "bar", "cuisine": "", "addr_street": "", "addr_housenumber": "", "addr_postcode": "", "opening_hours": "", "phone": "", "website": "" }, "geometry": { "type": "Point", "coordinates": [ 103.8460375, 1.2776691 ] } },
{ "type": "Feature", "properties": { "osm_id": 1766486405, "name": "Long Bar", "amenity": "bar", "cuisine": "", "addr_street": "Beach Road", "addr_housenumber": "1", "addr_postcode": "189673", "opening_hours": "Su-Th 11:00-00:30; Fr-Sa 11:00-01:30", "phone": "", "website": "https://raffles.com/singapore/dining/long-bar" }, "geometry": { "type": "Point", "coordinates": [ 103.8534677, 1.2951307 ] } },
{ "type": "Feature", "properties": { "osm_id": 1948651873, "name": "", "amenity": "bar", "cuisine": "", "addr_street": "", "addr_housenumber": "", "addr_postcode": "", "opening_hours": "", "phone": "", "website": "" }, "geometry": { "type": "Point", "coordinates": [ 103.8054874, 1.2645233 ] } },
{ "type": "Feature", "properties": { "osm_id": 2099138256, "name": "", "amenity": "bar", "cuisine": "", "addr_street": "Robertson Quay", "addr_housenumber": "86", "addr_postcode": "238245", "opening_hours": "", "phone": "", "website": "https://tapthat.com.sg/" }, "geometry": { "type": "Point", "coordinates": [ 103.8372885, 1.290008 ] } },
{ "type": "Feature", "properties": { "osm_id": 2099138258, "name": "Botany", "amenity": "bar", "cuisine": "", "addr_street": "Robertson Quay", "addr_housenumber": "86", "addr_postcode": "238245", "opening_hours": "Mo-Fr 09:00-22:00; Sa,Su,PH 08:30-22:00", "phone": "", "website": "https://www.botany.com.sg" }, "geometry": { "type": "Point", "coordinates": [ 103.8372015, 1.2900634 ] } },
{ "type": "Feature", "properties": { "osm_id": 2099138259, "name": "Boomarang Bistro & Bar", "amenity": "bar", "cuisine": "", "addr_street": "Robertson Quay", "addr_housenumber": "60", "addr_postcode": "238252", "opening_hours": "06:00-03:00", "phone": "+6567381077", "website": "https://www.boomarang.com.sg/" }, "geometry": { "type": "Point", "coordinates": [ 103.838777, 1.2895993 ] } },
{ "type": "Feature", "properties": { "osm_id": 2099138264, "name": "Bar Bar Black Sheep", "amenity": "bar", "cuisine": "", "addr_street": "", "addr_housenumber": "", "addr_postcode": "", "opening_hours": "", "phone": "", "website": "" }, "geometry": { "type": "Point", "coordinates": [ 103.8369706, 1.2902013 ] } },
{ "type": "Feature", "properties": { "osm_id": 2231979054, "name": "1-Altitude Rooftop Gallery & Bar", "amenity": "bar", "cuisine": "", "addr_street": "Raffles Place", "addr_housenumber": "1", "addr_postcode": "048616", "opening_hours": "Su-Tu 18:00-02:00, Th 18:00-03:00, We,Fr,Sa 18:00-04:00", "phone": "", "website": "https://www.1-altitude.com/gallery-bar" }, "geometry": { "type": "Point", "coordinates": [ 103.8510968, 1.2847415 ] } },
{ "type": "Feature", "properties": { "osm_id": 2232017117, "name": "Hood Bar and Cafe", "amenity": "bar", "cuisine": "", "addr_street": "Seah Street", "addr_housenumber": "201", "addr_postcode": "", "opening_hours": "", "phone": "", "website": "http://www.hoodbarandcafe.com/" }, "geometry": { "type": "Point", "coordinates": [ 103.8546364, 1.3001585 ] } },
{ "type": "Feature", "properties": { "osm_id": 2232048707, "name": "The Library", "amenity": "bar", "cuisine": "", "addr_street": "Keong Saik Road", "addr_housenumber": "49", "addr_postcode": "", "opening_hours": "", "phone": "", "website": "" }, "geometry": { "type": "Point", "coordinates": [ 103.8416614, 1.2802935 ] } },
{ "type": "Feature", "properties": { "osm_id": 2275225257, "name": "Club Street Social", "amenity": "bar", "cuisine": "", "addr_street": "", "addr_housenumber": "", "addr_postcode": "", "opening_hours": "", "phone": "", "website": "" }, "geometry": { "type": "Point", "coordinates": [ 103.8473149, 1.2824611 ] } },
{ "type": "Feature", "properties": { "osm_id": 2424592455, "name": "CÉ LA VI", "amenity": "bar", "cuisine": "", "addr_street": "Bayfront Avenue", "addr_housenumber": "1", "addr_postcode": "018971", "opening_hours": "", "phone": "+65 6688 7688", "website": "https://sg.celavi.com/" }, "geometry": { "type": "Point", "coordinates": [ 103.860933, 1.2846154 ] } },
{ "type": "Feature", "properties": { "osm_id": 2614471363, "name": "The Rooftop", "amenity": "bar", "cuisine": "", "addr_street": "", "addr_housenumber": "", "addr_postcode": "", "opening_hours": "17:00-24:00; Sa,Su 17:00-02:00; Su off", "phone": "+65 6538 9038", "website": "https://www.1919.com.sg/therooftopmenu" }, "geometry": { "type": "Point", "coordinates": [ 103.8535374, 1.2870358 ] } },
{ "type": "Feature", "properties": { "osm_id": 2738927821, "name": "Mr Punch Rooftop Bar", "amenity": "bar", "cuisine": "", "addr_street": "Seah Street", "addr_housenumber": "26", "addr_postcode": "188382", "opening_hours": "", "phone": "", "website": "http://emint.com/mint/go/mrpunch/rooftop" }, "geometry": { "type": "Point", "coordinates": [ 103.8545669, 1.2962505 ] } },
{ "type": "Feature", "properties": { "osm_id": 3021602711, "name": "New rasa Singapura", "amenity": "bar", "cuisine": "", "addr_street": "", "addr_housenumber": "", "addr_postcode": "", "opening_hours": "", "phone": "", "website": "" }, "geometry": { "type": "Point", "coordinates": [ 103.8228494, 1.3055063 ] } },
{ "type": "Feature", "properties": { "osm_id": 3073104825, "name": "Topsy", "amenity": "bar", "cuisine": "", "addr_street": "Rangoon Road", "addr_housenumber": "154", "addr_postcode": "218431", "opening_hours": "", "phone": "", "website": "" }, "geometry": { "type": "Point", "coordinates": [ 103.8534259, 1.3161982 ] } },
{ "type": "Feature", "properties": { "osm_id": 3101615647, "name": "Harry’s @ Pier Robertson", "amenity": "bar", "cuisine": "", "addr_street": "Mohamed Sultan Road", "addr_housenumber": "80", "addr_postcode": "239013", "opening_hours": "", "phone": "", "website": "" }, "geometry": { "type": "Point", "coordinates": [ 103.8408806, 1.2913926 ] } },
{ "type": "Feature", "properties": { "osm_id": 3460857136, "name": "Sassy Bar", "amenity": "bar", "cuisine": "", "addr_street": "", "addr_housenumber": "", "addr_postcode": "", "opening_hours": "", "phone": "", "website": "" }, "geometry": { "type": "Point", "coordinates": [ 103.8481378, 1.2869321 ] } },
{ "type": "Feature", "properties": { "osm_id": 3483490441, "name": "Royal Palm", "amenity": "bar", "cuisine": "", "addr_street": "", "addr_housenumber": "", "addr_postcode": "", "opening_hours": "", "phone": "", "website": "" }, "geometry": { "type": "Point", "coordinates": [ 103.8633272, 1.2891017 ] } },
{ "type": "Feature", "properties": { "osm_id": 3483490446, "name": "Urban Beach Bar", "amenity": "bar", "cuisine": "", "addr_street": "", "addr_housenumber": "", "addr_postcode": "", "opening_hours": "", "phone": "", "website": "" }, "geometry": { "type": "Point", "coordinates": [ 103.8638022, 1.2890294 ] } },
{ "type": "Feature", "properties": { "osm_id": 3653443295, "name": "Bunker", "amenity": "bar", "cuisine": "", "addr_street": "Joo Chiat Road", "addr_housenumber": "204", "addr_postcode": "", "opening_hours": "", "phone": "", "website": "" }, "geometry": { "type": "Point", "coordinates": [ 103.9003065, 1.3121948 ] } },
{ "type": "Feature", "properties": { "osm_id": 3653443301, "name": "Club Echo", "amenity": "bar", "cuisine": "", "addr_street": "Joo Chiat Road", "addr_housenumber": "", "addr_postcode": "", "opening_hours": "", "phone": "", "website": "" }, "geometry": { "type": "Point", "coordinates": [ 103.900983, 1.3112518 ] } },
{ "type": "Feature", "properties": { "osm_id": 3653443324, "name": "KTV Lounge", "amenity": "bar", "cuisine": "", "addr_street": "Joo Chiat Road", "addr_housenumber": "", "addr_postcode": "", "opening_hours": "", "phone": "", "website": "" }, "geometry": { "type": "Point", "coordinates": [ 103.9015006, 1.3107956 ] } },
{ "type": "Feature", "properties": { "osm_id": 3653443333, "name": "iV Music Lounge", "amenity": "bar", "cuisine": "", "addr_street": "Joo Chiat Road", "addr_housenumber": "255", "addr_postcode": "", "opening_hours": "", "phone": "", "website": "" }, "geometry": { "type": "Point", "coordinates": [ 103.9015906, 1.3106687 ] } },
{ "type": "Feature", "properties": { "osm_id": 3653443367, "name": "155 Music Lounge", "amenity": "bar", "cuisine": "", "addr_street": "Joo Chiat Road", "addr_housenumber": "155", "addr_postcode": "", "opening_hours": "", "phone": "", "website": "" }, "geometry": { "type": "Point", "coordinates": [ 103.9000761, 1.3128032 ] } },
{ "type": "Feature", "properties": { "osm_id": 3685031225, "name": "", "amenity": "bar", "cuisine": "", "addr_street": "", "addr_housenumber": "", "addr_postcode": "", "opening_hours": "", "phone": "", "website": "" }, "geometry": { "type": "Point", "coordinates": [ 103.8291, 1.3068211 ] } },
{ "type": "Feature", "properties": { "osm_id": 3756786308, "name": "Hometeam NS (Chinatown)", "amenity": "bar", "cuisine": "", "addr_street": "Smith Street", "addr_housenumber": "35", "addr_postcode": "058945", "opening_hours": "", "phone": "", "website": "" }, "geometry": { "type": "Point", "coordinates": [ 103.8444443, 1.2820961 ] } },
{ "type": "Feature", "properties": { "osm_id": 3756952866, "name": "BQ Bar", "amenity": "bar", "cuisine": "", "addr_street": "Boat Quay", "addr_housenumber": "39", "addr_postcode": "049828", "opening_hours": "", "phone": "+65 6536 9722", "website": "https://www.bqbar.com/" }, "geometry": { "type": "Point", "coordinates": [ 103.8495843, 1.2865069 ] } },
{ "type": "Feature", "properties": { "osm_id": 3756952867, "name": "Charlie's Paradiso", "amenity": "bar", "cuisine": "", "addr_street": "Boat Quay", "addr_housenumber": "32", "addr_postcode": "049821", "opening_hours": "", "phone": "+65 6534 0032", "website": "http://www.charlies.com.sg/" }, "geometry": { "type": "Point", "coordinates": [ 103.8498052, 1.2861528 ] } },
{ "type": "Feature", "properties": { "osm_id": 3756952873, "name": "1826.sg", "amenity": "bar", "cuisine": "", "addr_street": "Boat Quay", "addr_housenumber": "34", "addr_postcode": "049823", "opening_hours": "", "phone": "", "website": "" }, "geometry": { "type": "Point", "coordinates": [ 103.8497664, 1.2862602 ] } },
{ "type": "Feature", "properties": { "osm_id": 3756961225, "name": "Kinara", "amenity": "bar", "cuisine": "", "addr_street": "Boat Quay", "addr_housenumber": "55", "addr_postcode": "049844", "opening_hours": "", "phone": "", "website": "" }, "geometry": { "type": "Point", "coordinates": [ 103.8493201, 1.2872289 ] } },
{ "type": "Feature", "properties": { "osm_id": 3758967882, "name": "Den Bar and Kitchen", "amenity": "bar", "cuisine": "", "addr_street": "Boon Tat Street", "addr_housenumber": "29", "addr_postcode": "069624", "opening_hours": "", "phone": "+65 6220 0629", "website": "http://www.den.com.sg/" }, "geometry": { "type": "Point", "coordinates": [ 103.8486069, 1.2811845 ] } },
{ "type": "Feature", "properties": { "osm_id": 3759044164, "name": "SaVanh Bistro & Lounge", "amenity": "bar", "cuisine": "", "addr_street": "Club Street", "addr_housenumber": "47", "addr_postcode": "069424", "opening_hours": "", "phone": "+65 6323 0503", "website": "https://indochine-group.com/" }, "geometry": { "type": "Point", "coordinates": [ 103.8460577, 1.2821803 ] } },
{ "type": "Feature", "properties": { "osm_id": 3759058309, "name": "Bar Naked", "amenity": "bar", "cuisine": "", "addr_street": "Club Street", "addr_housenumber": "95", "addr_postcode": "", "opening_hours": "", "phone": "+65 6423 4695", "website": "http://www.naked.com.sg/" }, "geometry": { "type": "Point", "coordinates": [ 103.8456228, 1.2815437 ] } },
{ "type": "Feature", "properties": { "osm_id": 3759058310, "name": "Beaujolais Bar", "amenity": "bar", "cuisine": "", "addr_street": "Ann Siang Hill", "addr_housenumber": "1", "addr_postcode": "069784", "opening_hours": "", "phone": "+65 6224 2227", "website": "http://www.beaujolais.com.sg/" }, "geometry": { "type": "Point", "coordinates": [ 103.8453867, 1.281584 ] } },
{ "type": "Feature", "properties": { "osm_id": 3759058311, "name": "Bumbo Rum Club", "amenity": "bar", "cuisine": "", "addr_street": "Club Street", "addr_housenumber": "83", "addr_postcode": "069451", "opening_hours": "", "phone": "+65 6690 7563", "website": "http://bumborumclub.sg/" }, "geometry": { "type": "Point", "coordinates": [ 103.8457778, 1.281775 ] } },
{ "type": "Feature", "properties": { "osm_id": 3759058315, "name": "The Pass", "amenity": "bar", "cuisine": "", "addr_street": "Club Street", "addr_housenumber": "93", "addr_postcode": "069461", "opening_hours": "", "phone": "+65 6635 7214", "website": "http://thepass.sg/" }, "geometry": { "type": "Point", "coordinates": [ 103.8456439, 1.2815835 ] } },
{ "type": "Feature", "properties": { "osm_id": 3759058317, "name": "Jerry’s BBQ and Grill", "amenity": "bar", "cuisine": "", "addr_street": "Club Street", "addr_housenumber": "94", "addr_postcode": "069462", "opening_hours": "", "phone": "+65 6536 2607", "website": "https://www.ninetyfour.sg/" }, "geometry": { "type": "Point", "coordinates": [ 103.8455334, 1.2816662 ] } },
{ "type": "Feature", "properties": { "osm_id": 3759062623, "name": "Gem Bar", "amenity": "bar", "cuisine": "", "addr_street": "", "addr_housenumber": "", "addr_postcode": "", "opening_hours": "", "phone": "+65 6224 7762", "website": "http://www.gemsingapore.com/" }, "geometry": { "type": "Point", "coordinates": [ 103.8454283, 1.281428 ] } },
{ "type": "Feature", "properties": { "osm_id": 3759076851, "name": "Tapow", "amenity": "bar", "cuisine": "", "addr_street": "Ann Siang Road", "addr_housenumber": "19", "addr_postcode": "", "opening_hours": "", "phone": "+65 6423 1213", "website": "https://www.facebook.com/tapowsg" }, "geometry": { "type": "Point", "coordinates": [ 103.8458125, 1.2810535 ] } },
{ "type": "Feature", "properties": { "osm_id": 3759784389, "name": "Blues Tavern", "amenity": "bar", "cuisine": "", "addr_street": "Tanjong Pagar Road", "addr_housenumber": "104", "addr_postcode": "088524", "opening_hours": "", "phone": "+65 6220 0911", "website": "" }, "geometry": { "type": "Point", "coordinates": [ 103.8435944, 1.278077 ] } },
{ "type": "Feature", "properties": { "osm_id": 3759786769, "name": "Leopold", "amenity": "bar", "cuisine": "austrian", "addr_street": "Tanjong Pagar Road", "addr_housenumber": "96", "addr_postcode": "088517", "opening_hours": "", "phone": "+65 6534 7644", "website": "http://leopold.sg/" }, "geometry": { "type": "Point", "coordinates": [ 103.8436493, 1.2782197 ] } },
{ "type": "Feature", "properties": { "osm_id": 3759797740, "name": "The Obelisk", "amenity": "bar", "cuisine": "", "addr_street": "Tanjong Pagar Road", "addr_housenumber": "61", "addr_postcode": "088482", "opening_hours": "", "phone": "", "website": "" }, "geometry": { "type": "Point", "coordinates": [ 103.843914, 1.2783777 ] } },
{ "type": "Feature", "properties": { "osm_id": 3759814222, "name": "High Bar Society", "amenity": "bar", "cuisine": "", "addr_street": "Tanjong Pagar Road", "addr_housenumber": "52", "addr_postcode": "", "opening_hours": "", "phone": "+6585130928", "website": "https://highbarsg.com/" }, "geometry": { "type": "Point", "coordinates": [ 103.843765, 1.2791971 ] } },
{ "type": "Feature", "properties": { "osm_id": 3759816045, "name": "Decades Bar", "amenity": "bar", "cuisine": "", "addr_street": "Neil Road", "addr_housenumber": "15", "addr_postcode": "", "opening_hours": "", "phone": "", "website": "" }, "geometry": { "type": "Point", "coordinates": [ 103.8434877, 1.28011 ] } },
{ "type": "Feature", "properties": { "osm_id": 3759828396, "name": "Dorothy’s Bar", "amenity": "bar", "cuisine": "", "addr_street": "Trengganu Street", "addr_housenumber": "13", "addr_postcode": "", "opening_hours": "", "phone": "+65 6221 6806", "website": "http://dorothysbar.com/" }, "geometry": { "type": "Point", "coordinates": [ 103.8442193, 1.2829184 ] } },
{ "type": "Feature", "properties": { "osm_id": 3759828398, "name": "Tuckshop", "amenity": "bar", "cuisine": "", "addr_street": "Neil Road", "addr_housenumber": "51", "addr_postcode": "", "opening_hours": "", "phone": "", "website": "" }, "geometry": { "type": "Point", "coordinates": [ 103.8426132, 1.2796669 ] } },
{ "type": "Feature", "properties": { "osm_id": 3759828399, "name": "Lluvia", "amenity": "bar", "cuisine": "", "addr_street": "Telok Ayer Street", "addr_housenumber": "145", "addr_postcode": "068605", "opening_hours": "", "phone": "", "website": "" }, "geometry": { "type": "Point", "coordinates": [ 103.8477481, 1.2807002 ] } },
{ "type": "Feature", "properties": { "osm_id": 3759828404, "name": "Tantric Bar", "amenity": "bar", "cuisine": "", "addr_street": "Neil Road", "addr_housenumber": "80", "addr_postcode": "", "opening_hours": "", "phone": "+65 6423 9232", "website": "https://www.homeofthebluespin.com/" }, "geometry": { "type": "Point", "coordinates": [ 103.8423986, 1.2796985 ] } },
{ "type": "Feature", "properties": { "osm_id": 3759828405, "name": "Hemlig", "amenity": "bar", "cuisine": "", "addr_street": "Neil Road", "addr_housenumber": "57", "addr_postcode": "", "opening_hours": "", "phone": "+65 6324 2802", "website": "" }, "geometry": { "type": "Point", "coordinates": [ 103.8424845, 1.2795186 ] } },
{ "type": "Feature", "properties": { "osm_id": 3759830443, "name": "31 Bar Kitchen", "amenity": "bar", "cuisine": "", "addr_street": "Keong Saik Road", "addr_housenumber": "31", "addr_postcode": "089138", "opening_hours": "", "phone": "+65 6224 9141", "website": "http://www.31barandkitchen.com/" }, "geometry": { "type": "Point", "coordinates": [ 103.8414623, 1.2799996 ] } },
{ "type": "Feature", "properties": { "osm_id": 3759836240, "name": "Bes Bar", "amenity": "bar", "cuisine": "", "addr_street": "Keong Saik Road", "addr_housenumber": "17", "addr_postcode": "", "opening_hours": "", "phone": "", "website": "https://www.facebook.com/Bes-Bar-158369397600770" }, "geometry": { "type": "Point", "coordinates": [ 103.8414088, 1.2796334 ] } },
{ "type": "Feature", "properties": { "osm_id": 3759866017, "name": "Bam Tapas Sake Bar", "amenity": "bar", "cuisine": "", "addr_street": "Tras Street", "addr_housenumber": "38", "addr_postcode": "078977", "opening_hours": "", "phone": "+65 6226 0500", "website": "https://www.bam.sg/" }, "geometry": { "type": "Point", "coordinates": [ 103.8443381, 1.2783649 ] } },
{ "type": "Feature", "properties": { "osm_id": 3759866019, "name": "Rappu", "amenity": "bar", "cuisine": "", "addr_street": "Duxton Road", "addr_housenumber": "52", "addr_postcode": "089516", "opening_hours": "", "phone": "+65 6222 1162", "website": "https://www.merchantsofsingapore.com.sg/" }, "geometry": { "type": "Point", "coordinates": [ 103.8432941, 1.2782508 ] } },
{ "type": "Feature", "properties": { "osm_id": 3790432897, "name": "The Exchange", "amenity": "bar", "cuisine": "", "addr_street": "Marina View", "addr_housenumber": "#01-05 Asia Square Tower 1, 8", "addr_postcode": "018960", "opening_hours": "", "phone": "+65 6636 1200", "website": "https://www.theexchange.com.sg/" }, "geometry": { "type": "Point", "coordinates": [ 103.8508921, 1.2787583 ] } },
{ "type": "Feature", "properties": { "osm_id": 3794765749, "name": "63 Celsius", "amenity": "bar", "cuisine": "", "addr_street": "Marina View", "addr_housenumber": "#01-03, Asia Square Tower 2", "addr_postcode": "018961", "opening_hours": "", "phone": "+65 6100 6363", "website": "https://www.63celsius.com/" }, "geometry": { "type": "Point", "coordinates": [ 103.8507006, 1.278498 ] } },
{ "type": "Feature", "properties": { "osm_id": 3815312828, "name": "Kinki", "amenity": "bar", "cuisine": "", "addr_street": "Collyer Quay", "addr_housenumber": "#02-02, Customs House, 70", "addr_postcode": "049323", "opening_hours": "", "phone": "+65 6533 3471", "website": "https://www.kinki.com.sg/" }, "geometry": { "type": "Point", "coordinates": [ 103.8535285, 1.2824549 ] } },
{ "type": "Feature", "properties": { "osm_id": 3816468971, "name": "Boulevard", "amenity": "bar", "cuisine": "", "addr_street": "Marina Boulevard", "addr_housenumber": "", "addr_postcode": "018981", "opening_hours": "09:00-24:00, Sa closed, Su closed", "phone": "+65 6634 8761", "website": "https://www.boulevard.sg/" }, "geometry": { "type": "Point", "coordinates": [ 103.8543912, 1.2801372 ] } },
{ "type": "Feature", "properties": { "osm_id": 3821298990, "name": "Urban Fairways", "amenity": "bar", "cuisine": "", "addr_street": "Robinson Road", "addr_housenumber": "168", "addr_postcode": "068912", "opening_hours": "", "phone": "+65 6327 8045", "website": "https://urbanfairways.com/" }, "geometry": { "type": "Point", "coordinates": [ 103.8478746, 1.2776067 ] } },
{ "type": "Feature", "properties": { "osm_id": 3895041281, "name": "Orio", "amenity": "bar", "cuisine": "", "addr_street": "Kampong Bahru Road", "addr_housenumber": "13", "addr_postcode": "", "opening_hours": "", "phone": "", "website": "" }, "geometry": { "type": "Point", "coordinates": [ 103.8367137, 1.277206 ] } },
{ "type": "Feature", "properties": { "osm_id": 3964413091, "name": "La Champañeria", "amenity": "bar", "cuisine": "", "addr_street": "Duxton Hill", "addr_housenumber": "21", "addr_postcode": "089604", "opening_hours": "Mo-Sa 17:00-24:00", "phone": "", "website": "" }, "geometry": { "type": "Point", "coordinates": [ 103.8426244, 1.2784696 ] } },
{ "type": "Feature", "properties": { "osm_id": 4014888019, "name": "Spago", "amenity": "bar", "cuisine": "", "addr_street": "Bayfront Avenue", "addr_housenumber": "10", "addr_postcode": "018956", "opening_hours": "", "phone": "", "website": "https://www.marinabaysands.com/restaurants/celebrity-chefs/spago.html" }, "geometry": { "type": "Point", "coordinates": [ 103.8606075, 1.2835651 ] } },
{ "type": "Feature", "properties": { "osm_id": 4030843894, "name": "Le bar / Taste", "amenity": "bar", "cuisine": "", "addr_street": "", "addr_housenumber": "", "addr_postcode": "", "opening_hours": "Mo-Su 06:00-22:00", "phone": "", "website": "" }, "geometry": { "type": "Point", "coordinates": [ 103.8524556, 1.3010867 ] } },
{ "type": "Feature", "properties": { "osm_id": 4237580794, "name": "Bar Stories", "amenity": "bar", "cuisine": "", "addr_street": "Haji Lane", "addr_housenumber": "", "addr_postcode": "", "opening_hours": "Mo-Sa 16:00-02:00", "phone": "", "website": "" }, "geometry": { "type": "Point", "coordinates": [ 103.8586494, 1.301233 ] } },
{ "type": "Feature", "properties": { "osm_id": 4241647401, "name": "", "amenity": "bar", "cuisine": "", "addr_street": "", "addr_housenumber": "", "addr_postcode": "", "opening_hours": "", "phone": "", "website": "" }, "geometry": { "type": "Point", "coordinates": [ 103.7604128, 1.3576139 ] } },
{ "type": "Feature", "properties": { "osm_id": 4276108716, "name": "Bar Rose", "amenity": "bar", "cuisine": "", "addr_street": "", "addr_housenumber": "", "addr_postcode": "", "opening_hours": "", "phone": "", "website": "" }, "geometry": { "type": "Point", "coordinates": [ 103.8448831, 1.2895571 ] } },
{ "type": "Feature", "properties": { "osm_id": 4285902789, "name": "Stanley Gibbons' Penny Red", "amenity": "bar", "cuisine": "", "addr_street": "", "addr_housenumber": "", "addr_postcode": "", "opening_hours": "", "phone": "", "website": "" }, "geometry": { "type": "Point", "coordinates": [ 103.8472018, 1.2845926 ] } },
{ "type": "Feature", "properties": { "osm_id": 4294216589, "name": "Brewerkz", "amenity": "bar", "cuisine": "", "addr_street": "Stadium Walk", "addr_housenumber": "2", "addr_postcode": "", "opening_hours": "", "phone": "", "website": "" }, "geometry": { "type": "Point", "coordinates": [ 103.8743756, 1.3001523 ] } },
{ "type": "Feature", "properties": { "osm_id": 4297921990, "name": "Urban Saloon", "amenity": "bar", "cuisine": "", "addr_street": "", "addr_housenumber": "", "addr_postcode": "", "opening_hours": "", "phone": "", "website": "" }, "geometry": { "type": "Point", "coordinates": [ 103.8458751, 1.2779468 ] } },
{ "type": "Feature", "properties": { "osm_id": 4368147059, "name": "Harry's", "amenity": "bar", "cuisine": "", "addr_street": "Lorong Mambong", "addr_housenumber": "22", "addr_postcode": "", "opening_hours": "", "phone": "", "website": "" }, "geometry": { "type": "Point", "coordinates": [ 103.7949605, 1.3115188 ] } },
{ "type": "Feature", "properties": { "osm_id": 4400965588, "name": "Chang Chewang", "amenity": "bar", "cuisine": "", "addr_street": "", "addr_housenumber": "", "addr_postcode": "", "opening_hours": "", "phone": "", "website": "" }, "geometry": { "type": "Point", "coordinates": [ 103.7889016, 1.4036821 ] } },
{ "type": "Feature", "properties": { "osm_id": 4474535689, "name": "Airport", "amenity": "bar", "cuisine": "", "addr_street": "", "addr_housenumber": "", "addr_postcode": "", "opening_hours": "", "phone": "", "website": "" }, "geometry": { "type": "Point", "coordinates": [ 103.9848883, 1.3551344 ] } },
{ "type": "Feature", "properties": { "osm_id": 4583483790, "name": "Ricciotti", "amenity": "bar", "cuisine": "italian_pizza;mediterranean;italian", "addr_street": "Upper Circular Road", "addr_housenumber": "20", "addr_postcode": "058416", "opening_hours": "Tu-Su 11:30-23:00", "phone": "", "website": "" }, "geometry": { "type": "Point", "coordinates": [ 103.8484176, 1.2892011 ] } },
{ "type": "Feature", "properties": { "osm_id": 4583483792, "name": "Skinny's Lounge", "amenity": "bar", "cuisine": "", "addr_street": "", "addr_housenumber": "", "addr_postcode": "", "opening_hours": "", "phone": "", "website": "" }, "geometry": { "type": "Point", "coordinates": [ 103.8491997, 1.2885918 ] } },
{ "type": "Feature", "properties": { "osm_id": 4583483795, "name": "Vespetta", "amenity": "bar", "cuisine": "", "addr_street": "", "addr_housenumber": "", "addr_postcode": "", "opening_hours": "", "phone": "", "website": "" }, "geometry": { "type": "Point", "coordinates": [ 103.8495492, 1.2865333 ] } },
{ "type": "Feature", "properties": { "osm_id": 4617476041, "name": "Smith Street Taps", "amenity": "bar", "cuisine": "", "addr_street": "", "addr_housenumber": "", "addr_postcode": "", "opening_hours": "", "phone": "", "website": "" }, "geometry": { "type": "Point", "coordinates": [ 103.8436993, 1.2824644 ] } },
{ "type": "Feature", "properties": { "osm_id": 4617476762, "name": "Druggists", "amenity": "bar", "cuisine": "beer;wine", "addr_street": "Tyrwhitt Road", "addr_housenumber": "119", "addr_postcode": "207547", "opening_hours": "", "phone": "+6568020228", "website": "" }, "geometry": { "type": "Point", "coordinates": [ 103.8597275, 1.3111151 ] } },
{ "type": "Feature", "properties": { "osm_id": 4620811715, "name": "Third E Sixth", "amenity": "bar", "cuisine": "", "addr_street": "", "addr_housenumber": "", "addr_postcode": "", "opening_hours": "", "phone": "", "website": "" }, "geometry": { "type": "Point", "coordinates": [ 103.8549748, 1.295933 ] } },
{ "type": "Feature", "properties": { "osm_id": 4625375491, "name": "Bikini Bar", "amenity": "bar", "cuisine": "", "addr_street": "", "addr_housenumber": "", "addr_postcode": "", "opening_hours": "", "phone": "", "website": "" }, "geometry": { "type": "Point", "coordinates": [ 103.8157379, 1.2527184 ] } },
{ "type": "Feature", "properties": { "osm_id": 4646419089, "name": "Foodcoholic", "amenity": "bar", "cuisine": "", "addr_street": "", "addr_housenumber": "68", "addr_postcode": "", "opening_hours": "", "phone": "+6598324949", "website": "https://www.foodcoholic.com/" }, "geometry": { "type": "Point", "coordinates": [ 103.8490752, 1.2864108 ] } },
{ "type": "Feature", "properties": { "osm_id": 4677339595, "name": "One Bistro Wine Bar", "amenity": "bar", "cuisine": "", "addr_street": "Upper Changi Road", "addr_housenumber": "", "addr_postcode": "", "opening_hours": "", "phone": "", "website": "" }, "geometry": { "type": "Point", "coordinates": [ 103.9482856, 1.3335564 ] } },
{ "type": "Feature", "properties": { "osm_id": 4682762231, "name": "Bar Room", "amenity": "bar", "cuisine": "", "addr_street": "East Coast Road", "addr_housenumber": "899", "addr_postcode": "", "opening_hours": "", "phone": "", "website": "" }, "geometry": { "type": "Point", "coordinates": [ 103.9242566, 1.3128583 ] } },
{ "type": "Feature", "properties": { "osm_id": 4683756264, "name": "Sidewalk Tavern", "amenity": "bar", "cuisine": "", "addr_street": "East Coast Road", "addr_housenumber": "924", "addr_postcode": "", "opening_hours": "", "phone": "", "website": "" }, "geometry": { "type": "Point", "coordinates": [ 103.9249483, 1.3123974 ] } },
{ "type": "Feature", "properties": { "osm_id": 4689465732, "name": "No Name Karaoke", "amenity": "bar", "cuisine": "", "addr_street": "Geylang Road", "addr_housenumber": "", "addr_postcode": "", "opening_hours": "", "phone": "", "website": "" }, "geometry": { "type": "Point", "coordinates": [ 103.8840903, 1.3136263 ] } },
{ "type": "Feature", "properties": { "osm_id": 4697957730, "name": "The Tuck Shop", "amenity": "bar", "cuisine": "", "addr_street": "Guillemard Road", "addr_housenumber": "", "addr_postcode": "", "opening_hours": "", "phone": "", "website": "" }, "geometry": { "type": "Point", "coordinates": [ 103.8886102, 1.3119415 ] } },
{ "type": "Feature", "properties": { "osm_id": 4702286632, "name": "Muze Music Bistro", "amenity": "bar", "cuisine": "", "addr_street": "Joo Chiat Road", "addr_housenumber": "51", "addr_postcode": "427373", "opening_hours": "", "phone": "", "website": "" }, "geometry": { "type": "Point", "coordinates": [ 103.8986149, 1.3149083 ] } },
{ "type": "Feature", "properties": { "osm_id": 4702309470, "name": "Pho's Nam So'n", "amenity": "bar", "cuisine": "", "addr_street": "Joo Chiat Road", "addr_housenumber": "", "addr_postcode": "", "opening_hours": "", "phone": "", "website": "" }, "geometry": { "type": "Point", "coordinates": [ 103.9006545, 1.3119928 ] } },
{ "type": "Feature", "properties": { "osm_id": 4702309473, "name": "Chivas", "amenity": "bar", "cuisine": "", "addr_street": "Joo Chiat Road", "addr_housenumber": "", "addr_postcode": "", "opening_hours": "", "phone": "", "website": "" }, "geometry": { "type": "Point", "coordinates": [ 103.9014576, 1.3108392 ] } },
{ "type": "Feature", "properties": { "osm_id": 4703885624, "name": "Baris Bistro Bar", "amenity": "bar", "cuisine": "", "addr_street": "Joo Chiat Road", "addr_housenumber": "", "addr_postcode": "", "opening_hours": "", "phone": "", "website": "" }, "geometry": { "type": "Point", "coordinates": [ 103.9044699, 1.3067901 ] } },
{ "type": "Feature", "properties": { "osm_id": 4712494103, "name": "Burnt Ends Bar", "amenity": "bar", "cuisine": "", "addr_street": "Dempsey Road", "addr_housenumber": "7", "addr_postcode": "249671", "opening_hours": "", "phone": "", "website": "https://burntends.com.sg/reservation/#1663565146092-9bbb650c-44fd" }, "geometry": { "type": "Point", "coordinates": [ 103.8088694, 1.3046281 ] } },
{ "type": "Feature", "properties": { "osm_id": 4715718757, "name": "Beer & Hops", "amenity": "bar", "cuisine": "", "addr_street": "Kovan Road", "addr_housenumber": "", "addr_postcode": "", "opening_hours": "", "phone": "", "website": "" }, "geometry": { "type": "Point", "coordinates": [ 103.8775835, 1.3548115 ] } },
{ "type": "Feature", "properties": { "osm_id": 4722792625, "name": "Kool Pub", "amenity": "bar", "cuisine": "", "addr_street": "Serangoon Garden Way", "addr_housenumber": "", "addr_postcode": "", "opening_hours": "", "phone": "", "website": "" }, "geometry": { "type": "Point", "coordinates": [ 103.8649845, 1.3638731 ] } },
{ "type": "Feature", "properties": { "osm_id": 4723305080, "name": "J's Bar and Grill", "amenity": "bar", "cuisine": "", "addr_street": "Sembawang Road", "addr_housenumber": "", "addr_postcode": "", "opening_hours": "", "phone": "", "website": "" }, "geometry": { "type": "Point", "coordinates": [ 103.832743, 1.4535998 ] } },
{ "type": "Feature", "properties": { "osm_id": 4723305083, "name": "Nelson Bar", "amenity": "bar", "cuisine": "", "addr_street": "Sembawang Road", "addr_housenumber": "", "addr_postcode": "", "opening_hours": "", "phone": "", "website": "" }, "geometry": { "type": "Point", "coordinates": [ 103.8325826, 1.4534511 ] } },
{ "type": "Feature", "properties": { "osm_id": 4723305084, "name": "Sem II", "amenity": "bar", "cuisine": "", "addr_street": "Sembawang Road", "addr_housenumber": "", "addr_postcode": "", "opening_hours": "", "phone": "", "website": "" }, "geometry": { "type": "Point", "coordinates": [ 103.8325542, 1.4535016 ] } },
{ "type": "Feature", "properties": { "osm_id": 4723314861, "name": "The Lions Den", "amenity": "bar", "cuisine": "", "addr_street": "Club Street", "addr_housenumber": "", "addr_postcode": "", "opening_hours": "", "phone": "", "website": "" }, "geometry": { "type": "Point", "coordinates": [ 103.8458006, 1.2820277 ] } },
{ "type": "Feature", "properties": { "osm_id": 4724952884, "name": "Mint", "amenity": "bar", "cuisine": "", "addr_street": "Amoy Street", "addr_housenumber": "", "addr_postcode": "", "opening_hours": "", "phone": "", "website": "" }, "geometry": { "type": "Point", "coordinates": [ 103.8469159, 1.2804779 ] } },
{ "type": "Feature", "properties": { "osm_id": 4726141090, "name": "The Armoury Gastrobar", "amenity": "bar", "cuisine": "", "addr_street": "Beach Road", "addr_housenumber": "36", "addr_postcode": "", "opening_hours": "We, Fr-Sa 17:00-02:00; Mo-Tu, Th 17:00-23:00", "phone": "+65 6385 3171", "website": "" }, "geometry": { "type": "Point", "coordinates": [ 103.8560014, 1.295687 ] } },
{ "type": "Feature", "properties": { "osm_id": 4728843192, "name": "LeBar", "amenity": "bar", "cuisine": "", "addr_street": "", "addr_housenumber": "", "addr_postcode": "", "opening_hours": "", "phone": "", "website": "" }, "geometry": { "type": "Point", "coordinates": [ 103.827251, 1.2457309 ] } },
{ "type": "Feature", "properties": { "osm_id": 4732627237, "name": "Singapura Club", "amenity": "bar", "cuisine": "", "addr_street": "Haji Lane", "addr_housenumber": "", "addr_postcode": "", "opening_hours": "", "phone": "", "website": "" }, "geometry": { "type": "Point", "coordinates": [ 103.8591187, 1.3007821 ] } },
{ "type": "Feature", "properties": { "osm_id": 4737053631, "name": "Art of Drinking", "amenity": "bar", "cuisine": "", "addr_street": "Kampong Bahru Road", "addr_housenumber": "", "addr_postcode": "", "opening_hours": "", "phone": "", "website": "" }, "geometry": { "type": "Point", "coordinates": [ 103.8356787, 1.2763838 ] } },
{ "type": "Feature", "properties": { "osm_id": 4738274224, "name": "Mini Bar", "amenity": "bar", "cuisine": "", "addr_street": "Chin Swee Road", "addr_housenumber": "", "addr_postcode": "", "opening_hours": "", "phone": "", "website": "" }, "geometry": { "type": "Point", "coordinates": [ 103.8404706, 1.2871027 ] } },
{ "type": "Feature", "properties": { "osm_id": 4738318737, "name": "Brilliant Stars Entertainment", "amenity": "bar", "cuisine": "", "addr_street": "Syed Alwi Road", "addr_housenumber": "", "addr_postcode": "", "opening_hours": "", "phone": "", "website": "" }, "geometry": { "type": "Point", "coordinates": [ 103.8575563, 1.3079237 ] } },
{ "type": "Feature", "properties": { "osm_id": 4745192796, "name": "Bourbon Street", "amenity": "bar", "cuisine": "", "addr_street": "Duxton Road", "addr_housenumber": "72", "addr_postcode": "", "opening_hours": "", "phone": "", "website": "" }, "geometry": { "type": "Point", "coordinates": [ 103.8431082, 1.278189 ] } },
{ "type": "Feature", "properties": { "osm_id": 4745227706, "name": "", "amenity": "bar", "cuisine": "", "addr_street": "Duxton Road", "addr_housenumber": "", "addr_postcode": "", "opening_hours": "", "phone": "", "website": "" }, "geometry": { "type": "Point", "coordinates": [ 103.8431275, 1.2779467 ] } },
{ "type": "Feature", "properties": { "osm_id": 4745441766, "name": "Nine", "amenity": "bar", "cuisine": "", "addr_street": "Kampong Bahru Road", "addr_housenumber": "", "addr_postcode": "", "opening_hours": "", "phone": "", "website": "" }, "geometry": { "type": "Point", "coordinates": [ 103.8360854, 1.2767501 ] } },
{ "type": "Feature", "properties": { "osm_id": 4756117321, "name": "Harry's Bar and Dining", "amenity": "bar", "cuisine": "", "addr_street": "", "addr_housenumber": "", "addr_postcode": "", "opening_hours": "24/7", "phone": "", "website": "" }, "geometry": { "type": "Point", "coordinates": [ 103.9901486, 1.3559272 ] } },
{ "type": "Feature", "properties": { "osm_id": 4756179026, "name": "O'Leary's Sportsbar & Grill", "amenity": "bar", "cuisine": "", "addr_street": "", "addr_housenumber": "", "addr_postcode": "", "opening_hours": "24/7", "phone": "", "website": "" }, "geometry": { "type": "Point", "coordinates": [ 103.9897435, 1.3550838 ] } },
{ "type": "Feature", "properties": { "osm_id": 4770642350, "name": "The Tiong Bahru Club", "amenity": "bar", "cuisine": "", "addr_street": "", "addr_housenumber": "", "addr_postcode": "", "opening_hours": "", "phone": "", "website": "" }, "geometry": { "type": "Point", "coordinates": [ 103.8332572, 1.2849504 ] } },
{ "type": "Feature", "properties": { "osm_id": 4929352322, "name": "Cuba Libre", "amenity": "bar", "cuisine": "", "addr_street": "River Valley Road", "addr_housenumber": "3E", "addr_postcode": "", "opening_hours": "", "phone": "", "website": "" }, "geometry": { "type": "Point", "coordinates": [ 103.8464595, 1.2902536 ] } },
{ "type": "Feature", "properties": { "osm_id": 4939148621, "name": "Absolute Açaí", "amenity": "bar", "cuisine": "brazilian", "addr_street": "", "addr_housenumber": "3", "addr_postcode": "048660", "opening_hours": "Mo-Fr 10:30-20:30; Sa 11:00-17:30", "phone": "+6562244088", "website": "https://www.absolute-acai.com/" }, "geometry": { "type": "Point", "coordinates": [ 103.8475695, 1.284999 ] } },
{ "type": "Feature", "properties": { "osm_id": 4957970421, "name": "Operation Dagger", "amenity": "bar", "cuisine": "", "addr_street": "Ann Siang Hill", "addr_housenumber": "7", "addr_postcode": "", "opening_hours": "", "phone": "", "website": "http://www.operationdagger.com" }, "geometry": { "type": "Point", "coordinates": [ 103.8457862, 1.281496 ] } },
{ "type": "Feature", "properties": { "osm_id": 4957975721, "name": "Harry's Clarke Quay", "amenity": "bar", "cuisine": "", "addr_street": "", "addr_housenumber": "", "addr_postcode": "", "opening_hours": "", "phone": "", "website": "" }, "geometry": { "type": "Point", "coordinates": [ 103.8454537, 1.2900576 ] } },
{ "type": "Feature", "properties": { "osm_id": 5040225370, "name": "Luxe Sidney", "amenity": "bar", "cuisine": "", "addr_street": "", "addr_housenumber": "", "addr_postcode": "", "opening_hours": "", "phone": "", "website": "" }, "geometry": { "type": "Point", "coordinates": [ 103.8414884, 1.2790688 ] } },
{ "type": "Feature", "properties": { "osm_id": 5040225373, "name": "Loloku", "amenity": "bar", "cuisine": "", "addr_street": "", "addr_housenumber": "", "addr_postcode": "", "opening_hours": "", "phone": "", "website": "" }, "geometry": { "type": "Point", "coordinates": [ 103.8414646, 1.2791585 ] } },
{ "type": "Feature", "properties": { "osm_id": 5185659824, "name": "Sake Maru", "amenity": "bar", "cuisine": "", "addr_street": "", "addr_housenumber": "", "addr_postcode": "", "opening_hours": "", "phone": "", "website": "" }, "geometry": { "type": "Point", "coordinates": [ 103.8483702, 1.2871543 ] } },
{ "type": "Feature", "properties": { "osm_id": 5201015922, "name": "Boulevard", "amenity": "bar", "cuisine": "", "addr_street": "Raffles Boulevard", "addr_housenumber": "", "addr_postcode": "", "opening_hours": "", "phone": "", "website": "" }, "geometry": { "type": "Point", "coordinates": [ 103.8594082, 1.2932394 ] } },
{ "type": "Feature", "properties": { "osm_id": 5224112041, "name": "Rabbit Carrot Gun", "amenity": "bar", "cuisine": "", "addr_street": "East Coast Road", "addr_housenumber": "47", "addr_postcode": "428767", "opening_hours": "Mo-Su 11:00-23:00", "phone": "", "website": "https://www.rabbit-carrot-gun.com" }, "geometry": { "type": "Point", "coordinates": [ 103.9031394, 1.3049065 ] } },
{ "type": "Feature", "properties": { "osm_id": 5236673978, "name": "Ola Beach Club", "amenity": "bar", "cuisine": "", "addr_street": "", "addr_housenumber": "", "addr_postcode": "", "opening_hours": "Mo-Th 10:00-22:00; Fr-Su 09:00-22:00", "phone": "+65 8189 6601", "website": "https://www.olabeachclub.com/" }, "geometry": { "type": "Point", "coordinates": [ 103.8154311, 1.2530529 ] } },
{ "type": "Feature", "properties": { "osm_id": 5308445084, "name": "Lit", "amenity": "bar", "cuisine": "", "addr_street": "", "addr_housenumber": "", "addr_postcode": "", "opening_hours": "", "phone": "", "website": "" }, "geometry": { "type": "Point", "coordinates": [ 103.8492914, 1.2876965 ] } },
{ "type": "Feature", "properties": { "osm_id": 5308445089, "name": "7-Eleven Bar", "amenity": "bar", "cuisine": "seafood", "addr_street": "", "addr_housenumber": "", "addr_postcode": "", "opening_hours": "", "phone": "", "website": "" }, "geometry": { "type": "Point", "coordinates": [ 103.8492395, 1.2884067 ] } },
{ "type": "Feature", "properties": { "osm_id": 5308445098, "name": "Pilcrow", "amenity": "bar", "cuisine": "", "addr_street": "Boat Quay", "addr_housenumber": "60", "addr_postcode": "", "opening_hours": "", "phone": "", "website": "" }, "geometry": { "type": "Point", "coordinates": [ 103.8492914, 1.2874788 ] } },
{ "type": "Feature", "properties": { "osm_id": 5308445101, "name": "My Little Spanish Place", "amenity": "bar", "cuisine": "", "addr_street": "", "addr_housenumber": "", "addr_postcode": "", "opening_hours": "", "phone": "", "website": "" }, "geometry": { "type": "Point", "coordinates": [ 103.8493218, 1.2871824 ] } },
{ "type": "Feature", "properties": { "osm_id": 5350977625, "name": "Employees Only", "amenity": "bar", "cuisine": "", "addr_street": "", "addr_housenumber": "", "addr_postcode": "", "opening_hours": "", "phone": "", "website": "" }, "geometry": { "type": "Point", "coordinates": [ 103.8475677, 1.2821162 ] } },
{ "type": "Feature", "properties": { "osm_id": 5350998121, "name": "Altimate", "amenity": "bar", "cuisine": "", "addr_street": "", "addr_housenumber": "", "addr_postcode": "", "opening_hours": "", "phone": "", "website": "" }, "geometry": { "type": "Point", "coordinates": [ 103.8511294, 1.2843819 ] } },
{ "type": "Feature", "properties": { "osm_id": 5367723521, "name": "28 Hongkong Street", "amenity": "bar", "cuisine": "", "addr_street": "", "addr_housenumber": "", "addr_postcode": "", "opening_hours": "Su-We 18:00-01:00; Th-Sa 18:00-02:00", "phone": "", "website": "https://28hks.com/" }, "geometry": { "type": "Point", "coordinates": [ 103.846947, 1.2876793 ] } },
{ "type": "Feature", "properties": { "osm_id": 5426441056, "name": "Hero's", "amenity": "bar", "cuisine": "", "addr_street": "Circular Road", "addr_housenumber": "69", "addr_postcode": "049423", "opening_hours": "", "phone": "", "website": "" }, "geometry": { "type": "Point", "coordinates": [ 103.8490451, 1.286446 ] } },
{ "type": "Feature", "properties": { "osm_id": 5490681633, "name": "Wine Bonanza", "amenity": "bar", "cuisine": "", "addr_street": "", "addr_housenumber": "", "addr_postcode": "", "opening_hours": "", "phone": "", "website": "" }, "geometry": { "type": "Point", "coordinates": [ 103.850659, 1.3043567 ] } },
{ "type": "Feature", "properties": { "osm_id": 5582640222, "name": "The Grande Whisky Museum", "amenity": "bar", "cuisine": "", "addr_street": "", "addr_housenumber": "", "addr_postcode": "", "opening_hours": "", "phone": "", "website": "" }, "geometry": { "type": "Point", "coordinates": [ 103.8580986, 1.2953362 ] } },
{ "type": "Feature", "properties": { "osm_id": 5586638523, "name": "LeVel33", "amenity": "bar", "cuisine": "", "addr_street": "Marina Boulevard", "addr_housenumber": "8", "addr_postcode": "018981", "opening_hours": "Mo-Su 12:00-23:00", "phone": "+65 6834 3133", "website": "https://level33.com.sg/" }, "geometry": { "type": "Point", "coordinates": [ 103.8542263, 1.280274 ] } },
{ "type": "Feature", "properties": { "osm_id": 5661727622, "name": "Bull and Bear", "amenity": "bar", "cuisine": "", "addr_street": "Pekin Street", "addr_housenumber": "31", "addr_postcode": "048671", "opening_hours": "", "phone": "+6565570879", "website": "https://www.bullandbear.com.sg/" }, "geometry": { "type": "Point", "coordinates": [ 103.8482404, 1.2837781 ] } },
{ "type": "Feature", "properties": { "osm_id": 5661727626, "name": "The Taco Bar", "amenity": "bar", "cuisine": "", "addr_street": "", "addr_housenumber": "", "addr_postcode": "", "opening_hours": "", "phone": "", "website": "" }, "geometry": { "type": "Point", "coordinates": [ 103.848517, 1.2834988 ] } },
{ "type": "Feature", "properties": { "osm_id": 5661727627, "name": "", "amenity": "bar", "cuisine": "", "addr_street": "", "addr_housenumber": "", "addr_postcode": "", "opening_hours": "", "phone": "", "website": "" }, "geometry": { "type": "Point", "coordinates": [ 103.8485575, 1.2834583 ] } },
{ "type": "Feature", "properties": { "osm_id": 5661727634, "name": "Beer Factory", "amenity": "bar", "cuisine": "", "addr_street": "", "addr_housenumber": "", "addr_postcode": "", "opening_hours": "", "phone": "", "website": "http://beerfactory.sg/" }, "geometry": { "type": "Point", "coordinates": [ 103.8487804, 1.28344 ] } },
{ "type": "Feature", "properties": { "osm_id": 5661727635, "name": "Archipelago Brewery", "amenity": "bar", "cuisine": "", "addr_street": "", "addr_housenumber": "", "addr_postcode": "", "opening_hours": "", "phone": "", "website": "" }, "geometry": { "type": "Point", "coordinates": [ 103.8486456, 1.2836081 ] } },
{ "type": "Feature", "properties": { "osm_id": 5661727637, "name": "Kanpai", "amenity": "bar", "cuisine": "", "addr_street": "", "addr_housenumber": "", "addr_postcode": "", "opening_hours": "", "phone": "", "website": "" }, "geometry": { "type": "Point", "coordinates": [ 103.8484906, 1.2837858 ] } },
{ "type": "Feature", "properties": { "osm_id": 5671844222, "name": "The Black Swan", "amenity": "bar", "cuisine": "", "addr_street": "Cecil Street", "addr_housenumber": "19", "addr_postcode": "", "opening_hours": "", "phone": "+65 8181 3305", "website": "https://www.theblackswan.com.sg/" }, "geometry": { "type": "Point", "coordinates": [ 103.8501338, 1.2824905 ] } },
{ "type": "Feature", "properties": { "osm_id": 5713788075, "name": "FOC Sentosa", "amenity": "bar", "cuisine": "", "addr_street": "", "addr_housenumber": "", "addr_postcode": "", "opening_hours": "", "phone": "", "website": "" }, "geometry": { "type": "Point", "coordinates": [ 103.8249958, 1.2468431 ] } },
{ "type": "Feature", "properties": { "osm_id": 5999542026, "name": "Smoke & Mirrors", "amenity": "bar", "cuisine": "", "addr_street": "St Andrew's Road", "addr_housenumber": "1", "addr_postcode": "178957", "opening_hours": "Mo-Th 15:00-01:00; Fr 15:00-02:00; Sa 12:00-02:00; Su 12:00-01:00", "phone": "+65 9380 6313", "website": "https://www.smokeandmirrors.com.sg/" }, "geometry": { "type": "Point", "coordinates": [ 103.851928, 1.2906296 ] } },
{ "type": "Feature", "properties": { "osm_id": 6009799285, "name": "Mikkeller", "amenity": "bar", "cuisine": "", "addr_street": "", "addr_housenumber": "", "addr_postcode": "", "opening_hours": "", "phone": "", "website": "" }, "geometry": { "type": "Point", "coordinates": [ 103.8546742, 1.2961609 ] } },
{ "type": "Feature", "properties": { "osm_id": 6032987985, "name": "Birds of a Feather", "amenity": "bar", "cuisine": "", "addr_street": "", "addr_housenumber": "", "addr_postcode": "", "opening_hours": "", "phone": "", "website": "" }, "geometry": { "type": "Point", "coordinates": [ 103.8477616, 1.2821767 ] } },
{ "type": "Feature", "properties": { "osm_id": 6033094985, "name": "ATLAS", "amenity": "bar", "cuisine": "", "addr_street": "North Bridge Road", "addr_housenumber": "600", "addr_postcode": "188778", "opening_hours": "Tu-Th 12:00-00:00; Fr, Sa 12:00-02:00", "phone": "+65 6396 4466", "website": "https://atlasbar.sg/" }, "geometry": { "type": "Point", "coordinates": [ 103.8577119, 1.300097 ] } },
{ "type": "Feature", "properties": { "osm_id": 6180054686, "name": "HopHeads Bar", "amenity": "bar", "cuisine": "", "addr_street": "", "addr_housenumber": "", "addr_postcode": "", "opening_hours": "", "phone": "", "website": "" }, "geometry": { "type": "Point", "coordinates": [ 103.8440798, 1.2967954 ] } },
{ "type": "Feature", "properties": { "osm_id": 6180054687, "name": "The Armoury Craft Beer Bar", "amenity": "bar", "cuisine": "", "addr_street": "", "addr_housenumber": "", "addr_postcode": "", "opening_hours": "", "phone": "", "website": "" }, "geometry": { "type": "Point", "coordinates": [ 103.8555622, 1.2946515 ] } },
{ "type": "Feature", "properties": { "osm_id": 6180054785, "name": "TAP Craft Beer Bar", "amenity": "bar", "cuisine": "", "addr_street": "", "addr_housenumber": "", "addr_postcode": "", "opening_hours": "", "phone": "", "website": "" }, "geometry": { "type": "Point", "coordinates": [ 103.8557808, 1.2922625 ] } },
{ "type": "Feature", "properties": { "osm_id": 6180055485, "name": "Almost Famous Craft Beer Bar", "amenity": "bar", "cuisine": "", "addr_street": "", "addr_housenumber": "", "addr_postcode": "", "opening_hours": "", "phone": "", "website": "" }, "geometry": { "type": "Point", "coordinates": [ 103.8525458, 1.2953932 ] } },
{ "type": "Feature", "properties": { "osm_id": 6316934531, "name": "Old Madras", "amenity": "bar", "cuisine": "", "addr_street": "", "addr_housenumber": "", "addr_postcode": "", "opening_hours": "", "phone": "", "website": "" }, "geometry": { "type": "Point", "coordinates": [ 103.8529767, 1.3109112 ] } },
{ "type": "Feature", "properties": { "osm_id": 6370355512, "name": "The Public Eight", "amenity": "bar", "cuisine": "", "addr_street": "St Andrew's Road", "addr_housenumber": "1", "addr_postcode": "178957", "opening_hours": "Mo-Sa 17:30-00:00", "phone": "+65 6242 5590", "website": "http://www.hachi-group.com/?page_id=113&lang=en" }, "geometry": { "type": "Point", "coordinates": [ 103.851241, 1.2894438 ] } },
{ "type": "Feature", "properties": { "osm_id": 6370600541, "name": "Green Door Bar", "amenity": "bar", "cuisine": "", "addr_street": "Dempsey Road", "addr_housenumber": "13A", "addr_postcode": "247694", "opening_hours": "Mo-Th 17:00-00:00; Fr 17:00-01:00; Sa 16:00-01:00; Su 13:00-00:00", "phone": "", "website": "https://www.theprivegroup.com.sg/thegreendoor/" }, "geometry": { "type": "Point", "coordinates": [ 103.8106238, 1.3045768 ] } },
{ "type": "Feature", "properties": { "osm_id": 6370603602, "name": "Jiu Zhuang", "amenity": "bar", "cuisine": "", "addr_street": "Dempsey Road", "addr_housenumber": "6D", "addr_postcode": "249664", "opening_hours": "Mo-Sa 17:00-01:00; Su closed", "phone": "+65 6471 1711", "website": "https://jiu-zhuang.com/" }, "geometry": { "type": "Point", "coordinates": [ 103.8084727, 1.3047055 ] } },
{ "type": "Feature", "properties": { "osm_id": 6437694885, "name": "Harry's", "amenity": "bar", "cuisine": "", "addr_street": "", "addr_housenumber": "", "addr_postcode": "", "opening_hours": "", "phone": "", "website": "" }, "geometry": { "type": "Point", "coordinates": [ 103.8890645, 1.3363626 ] } },
{ "type": "Feature", "properties": { "osm_id": 6479789581, "name": "", "amenity": "bar", "cuisine": "", "addr_street": "", "addr_housenumber": "", "addr_postcode": "", "opening_hours": "", "phone": "", "website": "" }, "geometry": { "type": "Point", "coordinates": [ 103.8128382, 1.2638342 ] } },
{ "type": "Feature", "properties": { "osm_id": 6573053186, "name": "Kilo lounge", "amenity": "bar", "cuisine": "", "addr_street": "", "addr_housenumber": "", "addr_postcode": "", "opening_hours": "", "phone": "", "website": "" }, "geometry": { "type": "Point", "coordinates": [ 103.8440785, 1.279452 ] } },
{ "type": "Feature", "properties": { "osm_id": 6622963987, "name": "Heart of Darkness Singapore", "amenity": "bar", "cuisine": "", "addr_street": "", "addr_housenumber": "", "addr_postcode": "", "opening_hours": "", "phone": "", "website": "" }, "geometry": { "type": "Point", "coordinates": [ 103.8444369, 1.2779505 ] } },
{ "type": "Feature", "properties": { "osm_id": 6623022485, "name": "TAP Craft Beer Bar", "amenity": "bar", "cuisine": "", "addr_street": "", "addr_housenumber": "", "addr_postcode": "", "opening_hours": "", "phone": "", "website": "" }, "geometry": { "type": "Point", "coordinates": [ 103.8515069, 1.2936458 ] } },
{ "type": "Feature", "properties": { "osm_id": 6628892987, "name": "Cable Car", "amenity": "bar", "cuisine": "", "addr_street": "", "addr_housenumber": "", "addr_postcode": "", "opening_hours": "", "phone": "", "website": "" }, "geometry": { "type": "Point", "coordinates": [ 103.8404458, 1.3024554 ] } },
{ "type": "Feature", "properties": { "osm_id": 6634642885, "name": "Jamboree", "amenity": "bar", "cuisine": "", "addr_street": "", "addr_housenumber": "", "addr_postcode": "", "opening_hours": "", "phone": "", "website": "" }, "geometry": { "type": "Point", "coordinates": [ 103.8289459, 1.3068436 ] } },
{ "type": "Feature", "properties": { "osm_id": 6640142691, "name": "The Country Side Cafe", "amenity": "bar", "cuisine": "", "addr_street": "", "addr_housenumber": "", "addr_postcode": "", "opening_hours": "", "phone": "", "website": "" }, "geometry": { "type": "Point", "coordinates": [ 103.8535738, 1.3051442 ] } },
{ "type": "Feature", "properties": { "osm_id": 6711576421, "name": "No Spoilers", "amenity": "bar", "cuisine": "", "addr_street": "", "addr_housenumber": "", "addr_postcode": "", "opening_hours": "", "phone": "", "website": "" }, "geometry": { "type": "Point", "coordinates": [ 103.8365482, 1.3015891 ] } },
{ "type": "Feature", "properties": { "osm_id": 6743669019, "name": "fame2", "amenity": "bar", "cuisine": "", "addr_street": "", "addr_housenumber": "", "addr_postcode": "", "opening_hours": "", "phone": "", "website": "" }, "geometry": { "type": "Point", "coordinates": [ 103.8541918, 1.2993075 ] } },
{ "type": "Feature", "properties": { "osm_id": 6744136785, "name": "The Beacon", "amenity": "bar", "cuisine": "burger;fish_and_chips;pasta;pizza", "addr_street": "", "addr_housenumber": "", "addr_postcode": "", "opening_hours": "", "phone": "", "website": "" }, "geometry": { "type": "Point", "coordinates": [ 103.8563734, 1.2923696 ] } },
{ "type": "Feature", "properties": { "osm_id": 6780474720, "name": "Downtown Live House", "amenity": "bar", "cuisine": "", "addr_street": "", "addr_housenumber": "", "addr_postcode": "", "opening_hours": "Su-Th 12:00-03:00; Fr-Sa,PH,PH eve 12:00-04:00", "phone": "", "website": "" }, "geometry": { "type": "Point", "coordinates": [ 103.8495274, 1.2918319 ] } },
{ "type": "Feature", "properties": { "osm_id": 6795996520, "name": "Court Martial Bar", "amenity": "bar", "cuisine": "", "addr_street": "", "addr_housenumber": "", "addr_postcode": "", "opening_hours": "Mo-Th 17:00-00:00; Fr 17:00-01:00; Sa,Su,PH off", "phone": "+65 6818 1916", "website": "" }, "geometry": { "type": "Point", "coordinates": [ 103.8557479, 1.2949464 ] } },
{ "type": "Feature", "properties": { "osm_id": 6796982387, "name": "The Beacon", "amenity": "bar", "cuisine": "pizza;burger;pasta;fish_and_chips", "addr_street": "", "addr_housenumber": "", "addr_postcode": "", "opening_hours": "", "phone": "", "website": "" }, "geometry": { "type": "Point", "coordinates": [ 103.8564767, 1.2924548 ] } },
{ "type": "Feature", "properties": { "osm_id": 6837136492, "name": "Wolaa", "amenity": "bar", "cuisine": "", "addr_street": "Balestier Road", "addr_housenumber": "387", "addr_postcode": "", "opening_hours": "", "phone": "", "website": "" }, "geometry": { "type": "Point", "coordinates": [ 103.8499984, 1.3252849 ] } },
{ "type": "Feature", "properties": { "osm_id": 6880523034, "name": "FunQ", "amenity": "bar", "cuisine": "", "addr_street": "", "addr_housenumber": "", "addr_postcode": "", "opening_hours": "", "phone": "", "website": "" }, "geometry": { "type": "Point", "coordinates": [ 103.8592281, 1.3005578 ] } },
{ "type": "Feature", "properties": { "osm_id": 6881014446, "name": "The singapura club", "amenity": "bar", "cuisine": "", "addr_street": "", "addr_housenumber": "", "addr_postcode": "", "opening_hours": "", "phone": "", "website": "" }, "geometry": { "type": "Point", "coordinates": [ 103.8591189, 1.3007922 ] } },
{ "type": "Feature", "properties": { "osm_id": 6895132190, "name": "Morganfield's", "amenity": "bar", "cuisine": "", "addr_street": "", "addr_housenumber": "", "addr_postcode": "", "opening_hours": "", "phone": "", "website": "" }, "geometry": { "type": "Point", "coordinates": [ 103.8601861, 1.2943894 ] } },
{ "type": "Feature", "properties": { "osm_id": 6895283671, "name": "Harry's Bar + Dining", "amenity": "bar", "cuisine": "", "addr_street": "", "addr_housenumber": "", "addr_postcode": "", "opening_hours": "", "phone": "", "website": "" }, "geometry": { "type": "Point", "coordinates": [ 103.8557251, 1.2944267 ] } },
{ "type": "Feature", "properties": { "osm_id": 6956299285, "name": "Tiger Street Lab", "amenity": "bar", "cuisine": "", "addr_street": "", "addr_housenumber": "", "addr_postcode": "", "opening_hours": "", "phone": "", "website": "" }, "geometry": { "type": "Point", "coordinates": [ 103.9896579, 1.3606774 ] } },
{ "type": "Feature", "properties": { "osm_id": 7056192886, "name": "Native", "amenity": "bar", "cuisine": "regional;asian;coffee_shop;local", "addr_street": "", "addr_housenumber": "52a", "addr_postcode": "069878", "opening_hours": "Mo-Sa 18:00-00:00", "phone": "+65 8869 6520", "website": "https://tribenative.com" }, "geometry": { "type": "Point", "coordinates": [ 103.8468558, 1.2801748 ] } },
{ "type": "Feature", "properties": { "osm_id": 7096023813, "name": "Pub 150", "amenity": "bar", "cuisine": "", "addr_street": "", "addr_housenumber": "", "addr_postcode": "", "opening_hours": "", "phone": "", "website": "" }, "geometry": { "type": "Point", "coordinates": [ 103.8604154, 1.3126579 ] } },
{ "type": "Feature", "properties": { "osm_id": 7096024977, "name": "40 Degree Live Lounge", "amenity": "bar", "cuisine": "", "addr_street": "", "addr_housenumber": "", "addr_postcode": "", "opening_hours": "", "phone": "", "website": "" }, "geometry": { "type": "Point", "coordinates": [ 103.8603799, 1.3126205 ] } },
{ "type": "Feature", "properties": { "osm_id": 7099721386, "name": "Elbow Room", "amenity": "bar", "cuisine": "", "addr_street": "", "addr_housenumber": "", "addr_postcode": "", "opening_hours": "", "phone": "", "website": "" }, "geometry": { "type": "Point", "coordinates": [ 103.8457593, 1.2817811 ] } },
{ "type": "Feature", "properties": { "osm_id": 7106320485, "name": "The Old Man", "amenity": "bar", "cuisine": "", "addr_street": "", "addr_housenumber": "", "addr_postcode": "", "opening_hours": "", "phone": "", "website": "" }, "geometry": { "type": "Point", "coordinates": [ 103.8415528, 1.2807328 ] } },
{ "type": "Feature", "properties": { "osm_id": 7149466460, "name": "WooBar", "amenity": "bar", "cuisine": "international", "addr_street": "", "addr_housenumber": "", "addr_postcode": "", "opening_hours": "11:30-24:00; Fr,Sa 11:30-01:00", "phone": "+65 6808 7258", "website": "https://www.marriott.com/hotels/hotel-information/restaurant/details/sinwh-w-singapore-sentosa-cove/6496377" }, "geometry": { "type": "Point", "coordinates": [ 103.8420388, 1.2462303 ] } },
{ "type": "Feature", "properties": { "osm_id": 7171207886, "name": "GabBar", "amenity": "bar", "cuisine": "", "addr_street": "", "addr_housenumber": "", "addr_postcode": "", "opening_hours": "", "phone": "", "website": "" }, "geometry": { "type": "Point", "coordinates": [ 103.8466067, 1.2901941 ] } },
{ "type": "Feature", "properties": { "osm_id": 7175075585, "name": "Ten Dollar Club", "amenity": "bar", "cuisine": "", "addr_street": "", "addr_housenumber": "", "addr_postcode": "", "opening_hours": "", "phone": "", "website": "" }, "geometry": { "type": "Point", "coordinates": [ 103.8488796, 1.3288198 ] } },
{ "type": "Feature", "properties": { "osm_id": 7184158712, "name": "Ace Club", "amenity": "bar", "cuisine": "", "addr_street": "", "addr_housenumber": "", "addr_postcode": "", "opening_hours": "", "phone": "", "website": "" }, "geometry": { "type": "Point", "coordinates": [ 103.8604795, 1.3127254 ] } },
{ "type": "Feature", "properties": { "osm_id": 7184158713, "name": "3-To-Tango", "amenity": "bar", "cuisine": "", "addr_street": "", "addr_housenumber": "", "addr_postcode": "", "opening_hours": "", "phone": "", "website": "" }, "geometry": { "type": "Point", "coordinates": [ 103.8605451, 1.3127944 ] } },
{ "type": "Feature", "properties": { "osm_id": 7184649866, "name": "Ma Cuisine", "amenity": "bar", "cuisine": "", "addr_street": "Craig Road", "addr_housenumber": "38", "addr_postcode": "089676", "opening_hours": "", "phone": "+65 62241838", "website": "https://macuisinesg.com/" }, "geometry": { "type": "Point", "coordinates": [ 103.8418556, 1.2782104 ] } },
{ "type": "Feature", "properties": { "osm_id": 7291413677, "name": "The Rock Bar", "amenity": "bar", "cuisine": "", "addr_street": "", "addr_housenumber": "", "addr_postcode": "", "opening_hours": "", "phone": "", "website": "" }, "geometry": { "type": "Point", "coordinates": [ 103.8190309, 1.2577266 ] } },
{ "type": "Feature", "properties": { "osm_id": 7565526145, "name": "La Luni", "amenity": "bar", "cuisine": "", "addr_street": "", "addr_housenumber": "", "addr_postcode": "", "opening_hours": "", "phone": "", "website": "" }, "geometry": { "type": "Point", "coordinates": [ 103.8610901, 1.3126482 ] } },
{ "type": "Feature", "properties": { "osm_id": 7592104047, "name": "Harry's Esplanade", "amenity": "bar", "cuisine": "", "addr_street": "", "addr_housenumber": "", "addr_postcode": "", "opening_hours": "", "phone": "", "website": "" }, "geometry": { "type": "Point", "coordinates": [ 103.8561261, 1.2895532 ] } },
{ "type": "Feature", "properties": { "osm_id": 7669784142, "name": "Plasma Karaoke", "amenity": "bar", "cuisine": "", "addr_street": "", "addr_housenumber": "", "addr_postcode": "", "opening_hours": "", "phone": "", "website": "" }, "geometry": { "type": "Point", "coordinates": [ 103.8497682, 1.299631 ] } },
{ "type": "Feature", "properties": { "osm_id": 7669809307, "name": "Cash Studio Karaoke Bar", "amenity": "bar", "cuisine": "", "addr_street": "", "addr_housenumber": "", "addr_postcode": "", "opening_hours": "", "phone": "", "website": "" }, "geometry": { "type": "Point", "coordinates": [ 103.8500836, 1.2998688 ] } },
{ "type": "Feature", "properties": { "osm_id": 7669826207, "name": "H RK Music", "amenity": "bar", "cuisine": "", "addr_street": "Pinsep Street", "addr_housenumber": "", "addr_postcode": "", "opening_hours": "", "phone": "", "website": "" }, "geometry": { "type": "Point", "coordinates": [ 103.8498425, 1.299745 ] } },
{ "type": "Feature", "properties": { "osm_id": 7669844985, "name": "That Good Bar", "amenity": "bar", "cuisine": "", "addr_street": "", "addr_housenumber": "", "addr_postcode": "", "opening_hours": "", "phone": "", "website": "" }, "geometry": { "type": "Point", "coordinates": [ 103.8501552, 1.2999451 ] } },
{ "type": "Feature", "properties": { "osm_id": 7690716485, "name": "The Other Roof", "amenity": "bar", "cuisine": "", "addr_street": "", "addr_housenumber": "", "addr_postcode": "069708", "opening_hours": "", "phone": "+65 6100 2882", "website": "https://www.theotherroof.com/" }, "geometry": { "type": "Point", "coordinates": [ 103.8458202, 1.2807811 ] } },
{ "type": "Feature", "properties": { "osm_id": 7759767493, "name": "Fountain Microbrewery & Restaurant", "amenity": "bar", "cuisine": "", "addr_street": "", "addr_housenumber": "", "addr_postcode": "", "opening_hours": "", "phone": "", "website": "" }, "geometry": { "type": "Point", "coordinates": [ 103.7349503, 1.3350986 ] } },
{ "type": "Feature", "properties": { "osm_id": 7769924141, "name": "", "amenity": "bar", "cuisine": "", "addr_street": "", "addr_housenumber": "", "addr_postcode": "", "opening_hours": "", "phone": "", "website": "" }, "geometry": { "type": "Point", "coordinates": [ 103.7524597, 1.3280763 ] } },
{ "type": "Feature", "properties": { "osm_id": 8233142439, "name": "Birdie Numnum Gastro Bar", "amenity": "bar", "cuisine": "", "addr_street": "", "addr_housenumber": "", "addr_postcode": "", "opening_hours": "", "phone": "", "website": "" }, "geometry": { "type": "Point", "coordinates": [ 103.9138881, 1.3223526 ] } },
{ "type": "Feature", "properties": { "osm_id": 8356972124, "name": "NINETEEN80", "amenity": "bar", "cuisine": "", "addr_street": "", "addr_housenumber": "", "addr_postcode": "088444", "opening_hours": "", "phone": "+65 9183 6073", "website": "http://www.nineteen80.sg" }, "geometry": { "type": "Point", "coordinates": [ 103.8440398, 1.2794852 ] } },
{ "type": "Feature", "properties": { "osm_id": 8357023817, "name": "Mr Stork", "amenity": "bar", "cuisine": "", "addr_street": "Fraser Street", "addr_housenumber": "5", "addr_postcode": "189354", "opening_hours": "", "phone": "+65 6408 1288", "website": "https://www.hyatt.com/" }, "geometry": { "type": "Point", "coordinates": [ 103.8578915, 1.2990853 ] } },
{ "type": "Feature", "properties": { "osm_id": 8566518458, "name": "One 4 D'Road Bar", "amenity": "bar", "cuisine": "", "addr_street": "", "addr_housenumber": "", "addr_postcode": "", "opening_hours": "", "phone": "", "website": "" }, "geometry": { "type": "Point", "coordinates": [ 103.8303099, 1.3055083 ] } },
{ "type": "Feature", "properties": { "osm_id": 8568738884, "name": "Mercendy", "amenity": "bar", "cuisine": "", "addr_street": "", "addr_housenumber": "", "addr_postcode": "", "opening_hours": "", "phone": "", "website": "" }, "geometry": { "type": "Point", "coordinates": [ 103.8915943, 1.31409 ] } },
{ "type": "Feature", "properties": { "osm_id": 8582266735, "name": "Indo Thai Bistro & Bar", "amenity": "bar", "cuisine": "", "addr_street": "", "addr_housenumber": "", "addr_postcode": "", "opening_hours": "", "phone": "", "website": "" }, "geometry": { "type": "Point", "coordinates": [ 103.8514027, 1.3053068 ] } },
{ "type": "Feature", "properties": { "osm_id": 9050967091, "name": "Nan Yang lala Bar", "amenity": "bar", "cuisine": "", "addr_street": "Jalan Sultan", "addr_housenumber": "500", "addr_postcode": "", "opening_hours": "11:30-06:00", "phone": "", "website": "" }, "geometry": { "type": "Point", "coordinates": [ 103.8601014, 1.3058567 ] } },
{ "type": "Feature", "properties": { "osm_id": 9051000022, "name": "Xiang Qin", "amenity": "bar", "cuisine": "", "addr_street": "Balestier Road", "addr_housenumber": "", "addr_postcode": "", "opening_hours": "", "phone": "", "website": "" }, "geometry": { "type": "Point", "coordinates": [ 103.8482806, 1.3264941 ] } },
{ "type": "Feature", "properties": { "osm_id": 9067225704, "name": "The Tipsy Cow", "amenity": "bar", "cuisine": "", "addr_street": "", "addr_housenumber": "", "addr_postcode": "", "opening_hours": "", "phone": "", "website": "" }, "geometry": { "type": "Point", "coordinates": [ 103.7247449, 1.3256858 ] } },
{ "type": "Feature", "properties": { "osm_id": 9118929618, "name": "Xiao Shi Dai", "amenity": "bar", "cuisine": "", "addr_street": "", "addr_housenumber": "", "addr_postcode": "", "opening_hours": "", "phone": "", "website": "" }, "geometry": { "type": "Point", "coordinates": [ 103.8434933, 1.2801008 ] } },
{ "type": "Feature", "properties": { "osm_id": 9235291614, "name": "Melodies Pub & Karaoke", "amenity": "bar", "cuisine": "", "addr_street": "Thong Soon Avenue", "addr_housenumber": "3", "addr_postcode": "", "opening_hours": "", "phone": "", "website": "" }, "geometry": { "type": "Point", "coordinates": [ 103.8187484, 1.3971348 ] } },
{ "type": "Feature", "properties": { "osm_id": 9238072367, "name": "Crystal Tavern", "amenity": "bar", "cuisine": "", "addr_street": "Thomson Road", "addr_housenumber": "157", "addr_postcode": "", "opening_hours": "", "phone": "", "website": "" }, "geometry": { "type": "Point", "coordinates": [ 103.8437377, 1.318078 ] } },
{ "type": "Feature", "properties": { "osm_id": 9271817282, "name": "Harry's", "amenity": "bar", "cuisine": "", "addr_street": "", "addr_housenumber": "", "addr_postcode": "", "opening_hours": "", "phone": "", "website": "" }, "geometry": { "type": "Point", "coordinates": [ 103.8441338, 1.31906 ] } },
{ "type": "Feature", "properties": { "osm_id": 9402033986, "name": "The Southbridge Hotel Restaurant and Whiskey Bar", "amenity": "bar", "cuisine": "", "addr_street": "", "addr_housenumber": "", "addr_postcode": "", "opening_hours": "", "phone": "", "website": "" }, "geometry": { "type": "Point", "coordinates": [ 103.845782, 1.2833654 ] } },
{ "type": "Feature", "properties": { "osm_id": 9404358021, "name": "Ikigai", "amenity": "bar", "cuisine": "", "addr_street": "Upper Circular Road", "addr_housenumber": "20", "addr_postcode": "058416", "opening_hours": "Mo-Th 16:00-00:00; Fr 16:00-03:00; Sa 16:00-04:00", "phone": "", "website": "" }, "geometry": { "type": "Point", "coordinates": [ 103.8488122, 1.2887652 ] } },
{ "type": "Feature", "properties": { "osm_id": 9491390059, "name": "Maduro", "amenity": "bar", "cuisine": "", "addr_street": "40C Harding Rd, Level 3, Singapore 249548", "addr_housenumber": "", "addr_postcode": "", "opening_hours": "", "phone": "+65 9756 4775", "website": "https://www.maduro.sg/" }, "geometry": { "type": "Point", "coordinates": [ 103.8137175, 1.3059553 ] } },
{ "type": "Feature", "properties": { "osm_id": 9510856064, "name": "Kult Yard", "amenity": "bar", "cuisine": "", "addr_street": "Pearl's Hill Terrace", "addr_housenumber": "195", "addr_postcode": "168976", "opening_hours": "We-Su 15:00-24:00", "phone": "", "website": "https://linktr.ee/kultyard" }, "geometry": { "type": "Point", "coordinates": [ 103.841501, 1.2847793 ] } },
{ "type": "Feature", "properties": { "osm_id": 9574589609, "name": "Tatawan", "amenity": "bar", "cuisine": "", "addr_street": "", "addr_housenumber": "", "addr_postcode": "", "opening_hours": "", "phone": "", "website": "" }, "geometry": { "type": "Point", "coordinates": [ 103.8492625, 1.2999868 ] } },
{ "type": "Feature", "properties": { "osm_id": 9621296177, "name": "Mystic", "amenity": "bar", "cuisine": "", "addr_street": "Lavender Street", "addr_housenumber": "237", "addr_postcode": "", "opening_hours": "", "phone": "", "website": "" }, "geometry": { "type": "Point", "coordinates": [ 103.8594171, 1.3150294 ] } },
{ "type": "Feature", "properties": { "osm_id": 9632471117, "name": "Sandaime Bunji", "amenity": "bar", "cuisine": "", "addr_street": "", "addr_housenumber": "", "addr_postcode": "", "opening_hours": "", "phone": "", "website": "" }, "geometry": { "type": "Point", "coordinates": [ 103.8587472, 1.2929597 ] } },
{ "type": "Feature", "properties": { "osm_id": 9653458059, "name": "Chug Chug", "amenity": "bar", "cuisine": "", "addr_street": "", "addr_housenumber": "", "addr_postcode": "", "opening_hours": "", "phone": "", "website": "" }, "geometry": { "type": "Point", "coordinates": [ 103.8934322, 1.3161925 ] } },
{ "type": "Feature", "properties": { "osm_id": 9653458063, "name": "Killiney", "amenity": "bar", "cuisine": "", "addr_street": "", "addr_housenumber": "", "addr_postcode": "", "opening_hours": "", "phone": "", "website": "" }, "geometry": { "type": "Point", "coordinates": [ 103.8934682, 1.316302 ] } },
{ "type": "Feature", "properties": { "osm_id": 9688903103, "name": "Barrels", "amenity": "bar", "cuisine": "", "addr_street": "", "addr_housenumber": "", "addr_postcode": "", "opening_hours": "", "phone": "", "website": "" }, "geometry": { "type": "Point", "coordinates": [ 103.7869714, 1.2806923 ] } },
{ "type": "Feature", "properties": { "osm_id": 9710728208, "name": "BarCode", "amenity": "bar", "cuisine": "", "addr_street": "", "addr_housenumber": "", "addr_postcode": "", "opening_hours": "", "phone": "", "website": "" }, "geometry": { "type": "Point", "coordinates": [ 103.9042854, 1.3045879 ] } },
{ "type": "Feature", "properties": { "osm_id": 9754275117, "name": "Taylor Adam", "amenity": "bar", "cuisine": "", "addr_street": "", "addr_housenumber": "", "addr_postcode": "", "opening_hours": "", "phone": "", "website": "" }, "geometry": { "type": "Point", "coordinates": [ 103.8511698, 1.2842356 ] } },
{ "type": "Feature", "properties": { "osm_id": 9827708284, "name": "Char Seal Bar", "amenity": "bar", "cuisine": "", "addr_street": "", "addr_housenumber": "", "addr_postcode": "", "opening_hours": "", "phone": "", "website": "" }, "geometry": { "type": "Point", "coordinates": [ 103.8452068, 1.2870738 ] } },
{ "type": "Feature", "properties": { "osm_id": 9855645407, "name": "Bar Bar Black Sheep", "amenity": "bar", "cuisine": "", "addr_street": "", "addr_housenumber": "", "addr_postcode": "", "opening_hours": "", "phone": "", "website": "" }, "geometry": { "type": "Point", "coordinates": [ 103.7725549, 1.3018146 ] } },
{ "type": "Feature", "properties": { "osm_id": 9858382016, "name": "One Bar", "amenity": "bar", "cuisine": "", "addr_street": "", "addr_housenumber": "", "addr_postcode": "", "opening_hours": "", "phone": "", "website": "" }, "geometry": { "type": "Point", "coordinates": [ 103.8627664, 1.3127116 ] } },
{ "type": "Feature", "properties": { "osm_id": 9858395147, "name": "Orcha Beer House", "amenity": "bar", "cuisine": "", "addr_street": "Kallang Avenue", "addr_housenumber": "2", "addr_postcode": "339407", "opening_hours": "", "phone": "", "website": "" }, "geometry": { "type": "Point", "coordinates": [ 103.8633426, 1.3119504 ] } },
{ "type": "Feature", "properties": { "osm_id": 9858416825, "name": "Prajin Karaoke", "amenity": "bar", "cuisine": "", "addr_street": "", "addr_housenumber": "", "addr_postcode": "", "opening_hours": "", "phone": "", "website": "" }, "geometry": { "type": "Point", "coordinates": [ 103.8633411, 1.3118136 ] } },
{ "type": "Feature", "properties": { "osm_id": 9893218532, "name": "Kilo Singapore", "amenity": "bar", "cuisine": "", "addr_street": "", "addr_housenumber": "", "addr_postcode": "", "opening_hours": "", "phone": "", "website": "" }, "geometry": { "type": "Point", "coordinates": [ 103.843254, 1.2794893 ] } },
{ "type": "Feature", "properties": { "osm_id": 9897471476, "name": "Brick Lane", "amenity": "bar", "cuisine": "", "addr_street": "", "addr_housenumber": "", "addr_postcode": "", "opening_hours": "", "phone": "", "website": "" }, "geometry": { "type": "Point", "coordinates": [ 103.8499685, 1.2964577 ] } },
{ "type": "Feature", "properties": { "osm_id": 9907417192, "name": "The Good Beer Co.", "amenity": "bar", "cuisine": "", "addr_street": "", "addr_housenumber": "", "addr_postcode": "", "opening_hours": "", "phone": "", "website": "" }, "geometry": { "type": "Point", "coordinates": [ 103.8475864, 1.2840983 ] } },
{ "type": "Feature", "properties": { "osm_id": 9907417194, "name": "Pulpo Borracho", "amenity": "bar", "cuisine": "", "addr_street": "", "addr_housenumber": "", "addr_postcode": "", "opening_hours": "", "phone": "", "website": "" }, "geometry": { "type": "Point", "coordinates": [ 103.8476693, 1.2840494 ] } },
{ "type": "Feature", "properties": { "osm_id": 9950628718, "name": "Bud", "amenity": "bar", "cuisine": "", "addr_street": "", "addr_housenumber": "", "addr_postcode": "", "opening_hours": "", "phone": "", "website": "" }, "geometry": { "type": "Point", "coordinates": [ 103.9634408, 1.3335564 ] } },
{ "type": "Feature", "properties": { "osm_id": 9950639619, "name": "Blvd", "amenity": "bar", "cuisine": "", "addr_street": "", "addr_housenumber": "", "addr_postcode": "", "opening_hours": "", "phone": "", "website": "" }, "geometry": { "type": "Point", "coordinates": [ 103.9634828, 1.3334978 ] } },
{ "type": "Feature", "properties": { "osm_id": 10015152430, "name": "The ExciseMan", "amenity": "bar", "cuisine": "", "addr_street": "", "addr_housenumber": "", "addr_postcode": "", "opening_hours": "", "phone": "", "website": "" }, "geometry": { "type": "Point", "coordinates": [ 103.8562524, 1.2896711 ] } },
{ "type": "Feature", "properties": { "osm_id": 10058828823, "name": "", "amenity": "bar", "cuisine": "", "addr_street": "", "addr_housenumber": "", "addr_postcode": "", "opening_hours": "", "phone": "", "website": "" }, "geometry": { "type": "Point", "coordinates": [ 103.8582252, 1.3155949 ] } },
{ "type": "Feature", "properties": { "osm_id": 10121106718, "name": "", "amenity": "bar", "cuisine": "", "addr_street": "", "addr_housenumber": "", "addr_postcode": "", "opening_hours": "", "phone": "", "website": "" }, "geometry": { "type": "Point", "coordinates": [ 103.8595484, 1.2857921 ] } },
{ "type": "Feature", "properties": { "osm_id": 10277272610, "name": "Club Famous", "amenity": "bar", "cuisine": "", "addr_street": "", "addr_housenumber": "", "addr_postcode": "", "opening_hours": "", "phone": "", "website": "" }, "geometry": { "type": "Point", "coordinates": [ 103.8443058, 1.2782205 ] } },
{ "type": "Feature", "properties": { "osm_id": 10277273710, "name": "Going Places Bar", "amenity": "bar", "cuisine": "", "addr_street": "", "addr_housenumber": "", "addr_postcode": "", "opening_hours": "", "phone": "", "website": "" }, "geometry": { "type": "Point", "coordinates": [ 103.8434277, 1.2785675 ] } },
{ "type": "Feature", "properties": { "osm_id": 10277273714, "name": "RPM Music Lounge", "amenity": "bar", "cuisine": "", "addr_street": "", "addr_housenumber": "", "addr_postcode": "", "opening_hours": "", "phone": "", "website": "" }, "geometry": { "type": "Point", "coordinates": [ 103.8433338, 1.2796921 ] } },
{ "type": "Feature", "properties": { "osm_id": 10277273717, "name": "Mami’s", "amenity": "bar", "cuisine": "", "addr_street": "", "addr_housenumber": "", "addr_postcode": "", "opening_hours": "", "phone": "", "website": "" }, "geometry": { "type": "Point", "coordinates": [ 103.8424612, 1.2794988 ] } },
{ "type": "Feature", "properties": { "osm_id": 10277273809, "name": "Goho", "amenity": "bar", "cuisine": "", "addr_street": "", "addr_housenumber": "", "addr_postcode": "", "opening_hours": "", "phone": "", "website": "" }, "geometry": { "type": "Point", "coordinates": [ 103.8432723, 1.2782144 ] } },
{ "type": "Feature", "properties": { "osm_id": 10277273813, "name": "Wen Moon", "amenity": "bar", "cuisine": "", "addr_street": "", "addr_housenumber": "", "addr_postcode": "", "opening_hours": "", "phone": "", "website": "" }, "geometry": { "type": "Point", "coordinates": [ 103.8425306, 1.2795672 ] } },
{ "type": "Feature", "properties": { "osm_id": 10277274510, "name": "Mitsu Sushi Bar", "amenity": "bar", "cuisine": "", "addr_street": "", "addr_housenumber": "", "addr_postcode": "", "opening_hours": "", "phone": "", "website": "" }, "geometry": { "type": "Point", "coordinates": [ 103.8433557, 1.2794796 ] } },
{ "type": "Feature", "properties": { "osm_id": 10277274512, "name": "SG Taps", "amenity": "bar", "cuisine": "", "addr_street": "", "addr_housenumber": "", "addr_postcode": "", "opening_hours": "", "phone": "", "website": "" }, "geometry": { "type": "Point", "coordinates": [ 103.8426772, 1.279128 ] } },
{ "type": "Feature", "properties": { "osm_id": 10287083509, "name": "Blu Jaz", "amenity": "bar", "cuisine": "", "addr_street": "Ophir Road", "addr_housenumber": "", "addr_postcode": "", "opening_hours": "", "phone": "", "website": "" }, "geometry": { "type": "Point", "coordinates": [ 103.85899, 1.3005603 ] } },
{ "type": "Feature", "properties": { "osm_id": 10287172744, "name": "U-Bar Thai Bistro", "amenity": "bar", "cuisine": "", "addr_street": "Balestier Road", "addr_housenumber": "325", "addr_postcode": "", "opening_hours": "", "phone": "", "website": "" }, "geometry": { "type": "Point", "coordinates": [ 103.8515945, 1.3238045 ] } },
{ "type": "Feature", "properties": { "osm_id": 10287172749, "name": "Killiney", "amenity": "bar", "cuisine": "", "addr_street": "", "addr_housenumber": "", "addr_postcode": "", "opening_hours": "", "phone": "", "website": "" }, "geometry": { "type": "Point", "coordinates": [ 103.8136486, 1.3226173 ] } },
{ "type": "Feature", "properties": { "osm_id": 10288960309, "name": "The Southbridge Hotel", "amenity": "bar", "cuisine": "", "addr_street": "", "addr_housenumber": "", "addr_postcode": "", "opening_hours": "", "phone": "", "website": "" }, "geometry": { "type": "Point", "coordinates": [ 103.8457403, 1.283234 ] } },
{ "type": "Feature", "properties": { "osm_id": 10289121309, "name": "Mama Diam", "amenity": "bar", "cuisine": "", "addr_street": "", "addr_housenumber": "", "addr_postcode": "", "opening_hours": "", "phone": "", "website": "" }, "geometry": { "type": "Point", "coordinates": [ 103.8497258, 1.2994194 ] } },
{ "type": "Feature", "properties": { "osm_id": 10581265405, "name": "Spiffy Dapper", "amenity": "bar", "cuisine": "", "addr_street": "River Valley", "addr_housenumber": "294", "addr_postcode": "238335", "opening_hours": "Tu-Sa 18:00+", "phone": "", "website": "https://spiffydapper.com/" }, "geometry": { "type": "Point", "coordinates": [ 103.8416531, 1.2953493 ] } },
{ "type": "Feature", "properties": { "osm_id": 10692886934, "name": "", "amenity": "bar", "cuisine": "", "addr_street": "", "addr_housenumber": "", "addr_postcode": "", "opening_hours": "", "phone": "", "website": "" }, "geometry": { "type": "Point", "coordinates": [ 103.7688941, 1.2921412 ] } },
{ "type": "Feature", "properties": { "osm_id": 10771041176, "name": "Jyu Gae", "amenity": "bar", "cuisine": "", "addr_street": "", "addr_housenumber": "", "addr_postcode": "", "opening_hours": "", "phone": "", "website": "" }, "geometry": { "type": "Point", "coordinates": [ 103.8498403, 1.297899 ] } },
{ "type": "Feature", "properties": { "osm_id": 10797144804, "name": "Bottom Up", "amenity": "bar", "cuisine": "", "addr_street": "", "addr_housenumber": "", "addr_postcode": "", "opening_hours": "", "phone": "", "website": "" }, "geometry": { "type": "Point", "coordinates": [ 103.6358558, 1.4195487 ] } },
{ "type": "Feature", "properties": { "osm_id": 10802965358, "name": "Cheval cafe bar bistro", "amenity": "bar", "cuisine": "", "addr_street": "", "addr_housenumber": "", "addr_postcode": "", "opening_hours": "", "phone": "", "website": "" }, "geometry": { "type": "Point", "coordinates": [ 103.8821278, 1.3454413 ] } },
{ "type": "Feature", "properties": { "osm_id": 10808393881, "name": "Talk Cock Sing Song 3", "amenity": "bar", "cuisine": "", "addr_street": "MacPherson Road", "addr_housenumber": "601", "addr_postcode": "368242", "opening_hours": "", "phone": "", "website": "" }, "geometry": { "type": "Point", "coordinates": [ 103.8877037, 1.3336312 ] } },
{ "type": "Feature", "properties": { "osm_id": 10808904646, "name": "Kalonn - Wine and Craft Beer Bistro", "amenity": "bar", "cuisine": "", "addr_street": "Tai Thong Crescent", "addr_housenumber": "12", "addr_postcode": "347836", "opening_hours": "Mo-Fr 16:00-24:00; Sa-Su 17:00-24:00", "phone": "+65 88278323", "website": "https://kalonn.business.site/" }, "geometry": { "type": "Point", "coordinates": [ 103.8696273, 1.3285137 ] } },
{ "type": "Feature", "properties": { "osm_id": 10827187603, "name": "", "amenity": "bar", "cuisine": "", "addr_street": "", "addr_housenumber": "", "addr_postcode": "", "opening_hours": "", "phone": "", "website": "" }, "geometry": { "type": "Point", "coordinates": [ 103.7790949, 1.3164222 ] } },
{ "type": "Feature", "properties": { "osm_id": 10882982538, "name": "L’Apéritif", "amenity": "bar", "cuisine": "", "addr_street": "", "addr_housenumber": "", "addr_postcode": "", "opening_hours": "", "phone": "", "website": "" }, "geometry": { "type": "Point", "coordinates": [ 103.8285483, 1.3138731 ] } },
{ "type": "Feature", "properties": { "osm_id": 10887272705, "name": "Skiver Sky Bar", "amenity": "bar", "cuisine": "", "addr_street": "", "addr_housenumber": "", "addr_postcode": "", "opening_hours": "", "phone": "", "website": "" }, "geometry": { "type": "Point", "coordinates": [ 103.8400098, 1.2877375 ] } },
{ "type": "Feature", "properties": { "osm_id": 10940339487, "name": "x10 bistro", "amenity": "bar", "cuisine": "", "addr_street": "Jalan Kebun Teh 1", "addr_housenumber": "9", "addr_postcode": "80250", "opening_hours": "Mo-Su 16:00-04:00", "phone": "0109496960", "website": "" }, "geometry": { "type": "Point", "coordinates": [ 103.7540194, 1.4857176 ] } },
{ "type": "Feature", "properties": { "osm_id": 10968864666, "name": "Little Easy Bistro Bar", "amenity": "bar", "cuisine": "", "addr_street": "", "addr_housenumber": "", "addr_postcode": "", "opening_hours": "", "phone": "", "website": "" }, "geometry": { "type": "Point", "coordinates": [ 103.8515091, 1.3049507 ] } },
{ "type": "Feature", "properties": { "osm_id": 10992300842, "name": "Arukōru", "amenity": "bar", "cuisine": "", "addr_street": "Hamilton Road", "addr_housenumber": "35", "addr_postcode": "", "opening_hours": "", "phone": "", "website": "" }, "geometry": { "type": "Point", "coordinates": [ 103.8613558, 1.3117707 ] } },
{ "type": "Feature", "properties": { "osm_id": 10996460505, "name": "Marhaba Lounge", "amenity": "bar", "cuisine": "", "addr_street": "", "addr_housenumber": "", "addr_postcode": "", "opening_hours": "", "phone": "", "website": "" }, "geometry": { "type": "Point", "coordinates": [ 103.9859758, 1.3571327 ] } },
{ "type": "Feature", "properties": { "osm_id": 11090494247, "name": "Nob Bistro", "amenity": "bar", "cuisine": "", "addr_street": "", "addr_housenumber": "", "addr_postcode": "", "opening_hours": "", "phone": "", "website": "" }, "geometry": { "type": "Point", "coordinates": [ 103.8550262, 1.2966984 ] } },
{ "type": "Feature", "properties": { "osm_id": 11090865005, "name": "Pink Blossoms Brewery", "amenity": "bar", "cuisine": "", "addr_street": "Ubi Avenue 3", "addr_housenumber": "50", "addr_postcode": "", "opening_hours": "", "phone": "", "website": "" }, "geometry": { "type": "Point", "coordinates": [ 103.8957479, 1.332158 ] } },
{ "type": "Feature", "properties": { "osm_id": 11170436827, "name": "Nutmeg & Clove", "amenity": "bar", "cuisine": "", "addr_street": "Purvis Street", "addr_housenumber": "9", "addr_postcode": "188587", "opening_hours": "Mo-Th 17:00-24:00; Fr-Sa 16:00-24:00", "phone": "+65 9389 9301", "website": "https://www.nutmegclove.com/" }, "geometry": { "type": "Point", "coordinates": [ 103.855107, 1.2966369 ] } },
{ "type": "Feature", "properties": { "osm_id": 11170441039, "name": "Olibier", "amenity": "bar", "cuisine": "", "addr_street": "Dunlop Street", "addr_housenumber": "70A", "addr_postcode": "", "opening_hours": "", "phone": "", "website": "" }, "geometry": { "type": "Point", "coordinates": [ 103.8533536, 1.3054028 ] } },
{ "type": "Feature", "properties": { "osm_id": 11226350637, "name": "", "amenity": "bar", "cuisine": "", "addr_street": "", "addr_housenumber": "", "addr_postcode": "", "opening_hours": "", "phone": "", "website": "" }, "geometry": { "type": "Point", "coordinates": [ 103.8527348, 1.294829 ] } },
{ "type": "Feature", "properties": { "osm_id": 11242926438, "name": "ébar", "amenity": "bar", "cuisine": "", "addr_street": "", "addr_housenumber": "", "addr_postcode": "088893", "opening_hours": "Su 22:00-01:00; Mo-Sa 19:00-02:00", "phone": "+65 6324 2802", "website": "" }, "geometry": { "type": "Point", "coordinates": [ 103.8425052, 1.2795409 ] } },
{ "type": "Feature", "properties": { "osm_id": 11293429403, "name": "Antler", "amenity": "bar", "cuisine": "", "addr_street": "", "addr_housenumber": "", "addr_postcode": "", "opening_hours": "", "phone": "", "website": "" }, "geometry": { "type": "Point", "coordinates": [ 103.8517621, 1.3019191 ] } },
{ "type": "Feature", "properties": { "osm_id": 11293429404, "name": "Canteen Bistro", "amenity": "bar", "cuisine": "", "addr_street": "", "addr_housenumber": "", "addr_postcode": "", "opening_hours": "", "phone": "", "website": "" }, "geometry": { "type": "Point", "coordinates": [ 103.8496238, 1.2974474 ] } },
{ "type": "Feature", "properties": { "osm_id": 11327786569, "name": "Sago house", "amenity": "bar", "cuisine": "", "addr_street": "", "addr_housenumber": "", "addr_postcode": "", "opening_hours": "", "phone": "", "website": "" }, "geometry": { "type": "Point", "coordinates": [ 103.8428123, 1.278494 ] } },
{ "type": "Feature", "properties": { "osm_id": 11335540715, "name": "Sopranos", "amenity": "bar", "cuisine": "", "addr_street": "Carpenter Street", "addr_housenumber": "18", "addr_postcode": "", "opening_hours": "", "phone": "", "website": "" }, "geometry": { "type": "Point", "coordinates": [ 103.8477396, 1.2883482 ] } },
{ "type": "Feature", "properties": { "osm_id": 11359537760, "name": "Yin", "amenity": "bar", "cuisine": "", "addr_street": "", "addr_housenumber": "", "addr_postcode": "", "opening_hours": "", "phone": "", "website": "" }, "geometry": { "type": "Point", "coordinates": [ 103.8448788, 1.2899002 ] } },
{ "type": "Feature", "properties": { "osm_id": 11375337869, "name": "Junior the Pocket Bar", "amenity": "bar", "cuisine": "", "addr_street": "Ann Siang Hill", "addr_housenumber": "6", "addr_postcode": "069787", "opening_hours": "Tu-Fr 17:00-00:00; Sa 18:00-00:00", "phone": "+65 8121 1462", "website": "" }, "geometry": { "type": "Point", "coordinates": [ 103.8453478, 1.2814002 ] } },
{ "type": "Feature", "properties": { "osm_id": 11453018451, "name": "T.C.B.", "amenity": "bar", "cuisine": "", "addr_street": "Balestier Road", "addr_housenumber": "400", "addr_postcode": "", "opening_hours": "", "phone": "", "website": "" }, "geometry": { "type": "Point", "coordinates": [ 103.8500304, 1.3258885 ] } },
{ "type": "Feature", "properties": { "osm_id": 11521903339, "name": "Neon Pigeon", "amenity": "bar", "cuisine": "", "addr_street": "Carpenter Street", "addr_housenumber": "36", "addr_postcode": "059915", "opening_hours": "Mo-Su 17:30-00:00", "phone": "", "website": "" }, "geometry": { "type": "Point", "coordinates": [ 103.8478001, 1.2880585 ] } },
{ "type": "Feature", "properties": { "osm_id": 11563386254, "name": "Octapas", "amenity": "bar", "cuisine": "spanish;tapas", "addr_street": "", "addr_housenumber": "", "addr_postcode": "", "opening_hours": "", "phone": "", "website": "" }, "geometry": { "type": "Point", "coordinates": [ 103.8467918, 1.2904457 ] } },
{ "type": "Feature", "properties": { "osm_id": 11563386258, "name": "Nadya Bar", "amenity": "bar", "cuisine": "", "addr_street": "Desker Road", "addr_housenumber": "113", "addr_postcode": "", "opening_hours": "", "phone": "", "website": "" }, "geometry": { "type": "Point", "coordinates": [ 103.8563499, 1.308347 ] } },
{ "type": "Feature", "properties": { "osm_id": 11602275070, "name": "Pat’s Bar", "amenity": "bar", "cuisine": "", "addr_street": "", "addr_housenumber": "", "addr_postcode": "", "opening_hours": "", "phone": "", "website": "" }, "geometry": { "type": "Point", "coordinates": [ 103.8399336, 1.279481 ] } },
{ "type": "Feature", "properties": { "osm_id": 11639373069, "name": "The Singapura Club", "amenity": "bar", "cuisine": "", "addr_street": "", "addr_housenumber": "", "addr_postcode": "", "opening_hours": "", "phone": "", "website": "" }, "geometry": { "type": "Point", "coordinates": [ 103.8461242, 1.290254 ] } },
{ "type": "Feature", "properties": { "osm_id": 11707546932, "name": "Luna Bistro", "amenity": "bar", "cuisine": "", "addr_street": "", "addr_housenumber": "", "addr_postcode": "", "opening_hours": "", "phone": "", "website": "" }, "geometry": { "type": "Point", "coordinates": [ 103.7703618, 1.4566058 ] } },
{ "type": "Feature", "properties": { "osm_id": 11707546934, "name": "Bierhaus", "amenity": "bar", "cuisine": "", "addr_street": "", "addr_housenumber": "", "addr_postcode": "", "opening_hours": "", "phone": "", "website": "" }, "geometry": { "type": "Point", "coordinates": [ 103.7696269, 1.4569838 ] } },
{ "type": "Feature", "properties": { "osm_id": 11707546935, "name": "Roku Bar", "amenity": "bar", "cuisine": "", "addr_street": "", "addr_housenumber": "", "addr_postcode": "", "opening_hours": "", "phone": "", "website": "" }, "geometry": { "type": "Point", "coordinates": [ 103.76958, 1.457067 ] } },
{ "type": "Feature", "properties": { "osm_id": 11754949235, "name": "High House", "amenity": "bar", "cuisine": "", "addr_street": "", "addr_housenumber": "", "addr_postcode": "", "opening_hours": "", "phone": "", "website": "" }, "geometry": { "type": "Point", "coordinates": [ 103.8512098, 1.2848072 ] } },
{ "type": "Feature", "properties": { "osm_id": 11802121088, "name": "Sidetrack", "amenity": "bar", "cuisine": "", "addr_street": "", "addr_housenumber": "", "addr_postcode": "", "opening_hours": "", "phone": "", "website": "" }, "geometry": { "type": "Point", "coordinates": [ 103.8630693, 1.3123069 ] } },
{ "type": "Feature", "properties": { "osm_id": 11816822654, "name": "Rvlt", "amenity": "bar", "cuisine": "", "addr_street": "Carpenter Street", "addr_housenumber": "38", "addr_postcode": "059917", "opening_hours": "Mo-Sa 16:00+; Su off", "phone": "+65 6909 5709", "website": "https://www.winervlt.sg/" }, "geometry": { "type": "Point", "coordinates": [ 103.847878, 1.2880034 ] } },
{ "type": "Feature", "properties": { "osm_id": 11850343988, "name": "Chola Resto Bar", "amenity": "bar", "cuisine": "", "addr_street": "", "addr_housenumber": "", "addr_postcode": "", "opening_hours": "", "phone": "", "website": "" }, "geometry": { "type": "Point", "coordinates": [ 103.852259, 1.3052773 ] } },
{ "type": "Feature", "properties": { "osm_id": 11850350140, "name": "Helen's Bar", "amenity": "bar", "cuisine": "", "addr_street": "", "addr_housenumber": "", "addr_postcode": "", "opening_hours": "", "phone": "", "website": "" }, "geometry": { "type": "Point", "coordinates": [ 103.8457145, 1.2900151 ] } },
{ "type": "Feature", "properties": { "osm_id": 11850350142, "name": "Ichi", "amenity": "bar", "cuisine": "", "addr_street": "", "addr_housenumber": "", "addr_postcode": "", "opening_hours": "", "phone": "", "website": "" }, "geometry": { "type": "Point", "coordinates": [ 103.8456774, 1.2900835 ] } },
{ "type": "Feature", "properties": { "osm_id": 11850350146, "name": "Level Up", "amenity": "bar", "cuisine": "", "addr_street": "", "addr_housenumber": "", "addr_postcode": "", "opening_hours": "", "phone": "", "website": "" }, "geometry": { "type": "Point", "coordinates": [ 103.8450895, 1.2897046 ] } },
{ "type": "Feature", "properties": { "osm_id": 11850350151, "name": "Verve Pizza Bar", "amenity": "bar", "cuisine": "", "addr_street": "", "addr_housenumber": "", "addr_postcode": "", "opening_hours": "", "phone": "", "website": "" }, "geometry": { "type": "Point", "coordinates": [ 103.8453619, 1.2898491 ] } },
{ "type": "Feature", "properties": { "osm_id": 11850350153, "name": "Sanchos", "amenity": "bar", "cuisine": "", "addr_street": "", "addr_housenumber": "", "addr_postcode": "", "opening_hours": "", "phone": "", "website": "" }, "geometry": { "type": "Point", "coordinates": [ 103.8454848, 1.2897246 ] } },
{ "type": "Feature", "properties": { "osm_id": 11881020482, "name": "Paradox", "amenity": "bar", "cuisine": "", "addr_street": "", "addr_housenumber": "", "addr_postcode": "", "opening_hours": "", "phone": "", "website": "" }, "geometry": { "type": "Point", "coordinates": [ 103.845377, 1.2890004 ] } },
{ "type": "Feature", "properties": { "osm_id": 11904458347, "name": "Maduro", "amenity": "bar", "cuisine": "", "addr_street": "", "addr_housenumber": "", "addr_postcode": "", "opening_hours": "", "phone": "", "website": "" }, "geometry": { "type": "Point", "coordinates": [ 103.8273594, 1.2456218 ] } },
{ "type": "Feature", "properties": { "osm_id": 11918913689, "name": "", "amenity": "bar", "cuisine": "", "addr_street": "", "addr_housenumber": "", "addr_postcode": "", "opening_hours": "", "phone": "", "website": "" }, "geometry": { "type": "Point", "coordinates": [ 103.8569587, 1.3099952 ] } },
{ "type": "Feature", "properties": { "osm_id": 11935018638, "name": "Space Bar", "amenity": "bar", "cuisine": "", "addr_street": "", "addr_housenumber": "", "addr_postcode": "", "opening_hours": "", "phone": "", "website": "" }, "geometry": { "type": "Point", "coordinates": [ 103.8814807, 1.3159289 ] } },
{ "type": "Feature", "properties": { "osm_id": 11935120735, "name": "Wine Connection", "amenity": "bar", "cuisine": "", "addr_street": "", "addr_housenumber": "", "addr_postcode": "", "opening_hours": "", "phone": "", "website": "" }, "geometry": { "type": "Point", "coordinates": [ 103.8525294, 1.2839964 ] } },
{ "type": "Feature", "properties": { "osm_id": 12208448901, "name": "Embassy Club", "amenity": "bar", "cuisine": "", "addr_street": "", "addr_housenumber": "", "addr_postcode": "", "opening_hours": "Mo-Sa 20:00-03:00", "phone": "+6597110454", "website": "" }, "geometry": { "type": "Point", "coordinates": [ 103.843774, 1.2791573 ] } },
{ "type": "Feature", "properties": { "osm_id": 12232184754, "name": "King Kong Bistro", "amenity": "bar", "cuisine": "", "addr_street": "", "addr_housenumber": "", "addr_postcode": "", "opening_hours": "", "phone": "", "website": "" }, "geometry": { "type": "Point", "coordinates": [ 103.8864081, 1.3362003 ] } },
{ "type": "Feature", "properties": { "osm_id": 12232184758, "name": "Pitch", "amenity": "bar", "cuisine": "", "addr_street": "", "addr_housenumber": "", "addr_postcode": "", "opening_hours": "", "phone": "", "website": "" }, "geometry": { "type": "Point", "coordinates": [ 103.8865091, 1.336214 ] } },
{ "type": "Feature", "properties": { "osm_id": 12400176501, "name": "Simply Jazz by Tin Box", "amenity": "bar", "cuisine": "international;japanese;local", "addr_street": "", "addr_housenumber": "", "addr_postcode": "", "opening_hours": "We-Sa 18:00-00:00", "phone": "", "website": "https://simplyjazz.tinboxgroup.sg" }, "geometry": { "type": "Point", "coordinates": [ 103.8526413, 1.2951063 ] } },
{ "type": "Feature", "properties": { "osm_id": 12598187433, "name": "No Sleep Club", "amenity": "bar", "cuisine": "", "addr_street": "Keong Saik Road", "addr_housenumber": "20", "addr_postcode": "089127", "opening_hours": "Tu-Sa 16:00-23:59; Su 12:00-18:00", "phone": "+65 8838 0188", "website": "https://www.nosleepclub.sg/" }, "geometry": { "type": "Point", "coordinates": [ 103.8416233, 1.2800491 ] } },
{ "type": "Feature", "properties": { "osm_id": 12796970278, "name": "Tandoor Lounge", "amenity": "bar", "cuisine": "", "addr_street": "", "addr_housenumber": "", "addr_postcode": "", "opening_hours": "", "phone": "", "website": "" }, "geometry": { "type": "Point", "coordinates": [ 103.9125628, 1.4204466 ] } },
{ "type": "Feature", "properties": { "osm_id": 12797683784, "name": "", "amenity": "bar", "cuisine": "", "addr_street": "", "addr_housenumber": "", "addr_postcode": "", "opening_hours": "", "phone": "", "website": "" }, "geometry": { "type": "Point", "coordinates": [ 103.8526672, 1.3052455 ] } },
{ "type": "Feature", "properties": { "osm_id": 12883888832, "name": "SIDES", "amenity": "bar", "cuisine": "", "addr_street": "", "addr_housenumber": "", "addr_postcode": "", "opening_hours": "unknown \"Depends, check Telegram channel https://t.me/SidesSingapore\"", "phone": "", "website": "" }, "geometry": { "type": "Point", "coordinates": [ 103.8419834, 1.3007874 ] } },
{ "type": "Feature", "properties": { "osm_id": 13167239209, "name": "3Elixir - Alcohol Delivery Singapore", "amenity": "bar", "cuisine": "", "addr_street": "Upper Paya Lebar Road", "addr_housenumber": "362", "addr_postcode": "534963", "opening_hours": "Mo-Sa 10:00-18:00", "phone": "", "website": "" }, "geometry": { "type": "Point", "coordinates": [ 103.8807891, 1.3480931 ] } },
{ "type": "Feature", "properties": { "osm_id": 13195491838, "name": "Tux", "amenity": "bar", "cuisine": "", "addr_street": "", "addr_housenumber": "", "addr_postcode": "", "opening_hours": "", "phone": "", "website": "" }, "geometry": { "type": "Point", "coordinates": [ 103.8532132, 1.2956336 ] } },
{ "type": "Feature", "properties": { "osm_id": 13254117999, "name": "Happy Bar & Kappo Hachi", "amenity": "bar", "cuisine": "", "addr_street": "Enggor Street", "addr_housenumber": "16", "addr_postcode": "", "opening_hours": "", "phone": "", "website": "" }, "geometry": { "type": "Point", "coordinates": [ 103.8444854, 1.2744063 ] } },
{ "type": "Feature", "properties": { "osm_id": 13266993728, "name": "Tipsy 9 Bar", "amenity": "bar", "cuisine": "", "addr_street": "Jalan Sri Pelangi 4", "addr_housenumber": "10", "addr_postcode": "80040", "opening_hours": "", "phone": "", "website": "" }, "geometry": { "type": "Point", "coordinates": [ 103.7734972, 1.4836211 ] } },
{ "type": "Feature", "properties": { "osm_id": 13313722714, "name": "Ginger.Lily Bar", "amenity": "bar", "cuisine": "", "addr_street": "Orchard Road", "addr_housenumber": "333", "addr_postcode": "238867", "opening_hours": "Mo-Su 12:00-01:00", "phone": "+65 6831 6273", "website": "http://hiltonsingaporeorchard.com/ginger.lilybar" }, "geometry": { "type": "Point", "coordinates": [ 103.8358378, 1.3019217 ] } },
{ "type": "Feature", "properties": { "osm_id": 116818155, "name": "Rumours Beach Club", "amenity": "bar", "cuisine": "", "addr_street": "Siloso Beach Walk", "addr_housenumber": "40", "addr_postcode": "098996", "opening_hours": "", "phone": "", "website": "" }, "geometry": { "type": "Point", "coordinates": [ 103.8146078, 1.2540174 ] } },
{ "type": "Feature", "properties": { "osm_id": 176839400, "name": "Bora Bora Beach Bar", "amenity": "bar", "cuisine": "", "addr_street": "", "addr_housenumber": "", "addr_postcode": "", "opening_hours": "", "phone": "", "website": "" }, "geometry": { "type": "Point", "coordinates": [ 103.8218644, 1.2493256 ] } },
{ "type": "Feature", "properties": { "osm_id": 453720565, "name": "", "amenity": "bar", "cuisine": "", "addr_street": "Clover Way", "addr_housenumber": "4", "addr_postcode": "", "opening_hours": "", "phone": "", "website": "" }, "geometry": { "type": "Point", "coordinates": [ 103.8439902, 1.3492173 ] } },
{ "type": "Feature", "properties": { "osm_id": 679034073, "name": "Bazin", "amenity": "bar", "cuisine": "", "addr_street": "Bayfront Avenue", "addr_housenumber": "2", "addr_postcode": "018972", "opening_hours": "", "phone": "", "website": "" }, "geometry": { "type": "Point", "coordinates": [ 103.8589244, 1.2845273 ] } },
{ "type": "Feature", "properties": { "osm_id": 679034074, "name": "Dallas Cafe & Bar", "amenity": "bar", "cuisine": "", "addr_street": "Bayfront Avenue", "addr_housenumber": "2", "addr_postcode": "018972", "opening_hours": "", "phone": "", "website": "" }, "geometry": { "type": "Point", "coordinates": [ 103.8590542, 1.2848069 ] } },
{ "type": "Feature", "properties": { "osm_id": 771027126, "name": "Evergreen Chill Out Bar", "amenity": "bar", "cuisine": "", "addr_street": "", "addr_housenumber": "", "addr_postcode": "", "opening_hours": "", "phone": "", "website": "" }, "geometry": { "type": "Point", "coordinates": [ 103.8011026, 1.4321622 ] } },
{ "type": "Feature", "properties": { "osm_id": 771072800, "name": "BBQ Terrace", "amenity": "bar", "cuisine": "", "addr_street": "", "addr_housenumber": "", "addr_postcode": "", "opening_hours": "", "phone": "", "website": "" }, "geometry": { "type": "Point", "coordinates": [ 103.800279, 1.4323822 ] } },
{ "type": "Feature", "properties": { "osm_id": 841782727, "name": "Georges Beach Club", "amenity": "bar", "cuisine": "", "addr_street": "East Coast Parkway", "addr_housenumber": "1010", "addr_postcode": "449892", "opening_hours": "", "phone": "", "website": "https://www.georges.com.sg/" }, "geometry": { "type": "Point", "coordinates": [ 103.9149034, 1.3015264 ] } },
{ "type": "Feature", "properties": { "osm_id": 876195563, "name": "", "amenity": "bar", "cuisine": "", "addr_street": "Clover Way", "addr_housenumber": "2", "addr_postcode": "", "opening_hours": "", "phone": "", "website": "" }, "geometry": { "type": "Point", "coordinates": [ 103.8439678, 1.3493156 ] } },
{ "type": "Feature", "properties": { "osm_id": 1210937607, "name": "Next Level Koffie & Beachfront Bar", "amenity": "bar", "cuisine": "", "addr_street": "", "addr_housenumber": "", "addr_postcode": "", "opening_hours": "", "phone": "", "website": "" }, "geometry": { "type": "Point", "coordinates": [ 104.0447417, 1.1728916 ] } },
{ "type": "Feature", "properties": { "osm_id": 1282792291, "name": "Mooney Mooney", "amenity": "bar", "cuisine": "", "addr_street": "Telok Kurau Road", "addr_housenumber": "119", "addr_postcode": "423799", "opening_hours": "Tu-Su 10:00-00:00; Mo 11:00-00:00", "phone": "", "website": "" }, "geometry": { "type": "Point", "coordinates": [ 103.9095418, 1.3147974 ] } }
]
}
